old_linkedin_url,new_linkedin_url,company_website,company_name,company_phone,company_size,employees_on_linkedIn,company_description,line1,line2,city,geographicArea,postalCode,country,headquarter,company_founded,company_specialities,company_type,company_location_primary,industry
https://www.linkedin.com/company/83111/about,https://www.linkedin.com/company/kantar,http://www.kantar.com,Kantar,,"10,000+ employees",35087 on LinkedIn,"Kantar is the worldâ€™s leading data, insights and consulting company. We help clients understand people and inspire growth.

We have a complete, unique and rounded understanding of people around the world: how they think, feel and act, globally and locally in over 90 markets.

We donâ€™t just help clients understand whatâ€™s happened, we tell them why and how they can shape the future.",6 More London Place,,London,,,GB,"London, None",,"market research, consulting, insights, analytics, health research, polling, surveys, brand tracking, media effectiveness, audience measurement, brand strategy, customer experience, innovation",Privately Held,"6 More London Place, London, GB",Market Research
https://www.linkedin.com/company/2522692/about,https://www.linkedin.com/company/decision-resources-group,http://decisionresourcesgroup.com/,Decision Resources Group,,1001- 5000 employees,475 on LinkedIn,"DRG is uniquely positioned to help healthcare businesses improve the lives of patients around the world by creating patient-centric commercialization strategies that drive better outcomes and better access. DRG helps clients propel commercial success with evidence-based business decisions by delivering expert consultation, data, and analysis enhanced by machine learning artificial intelligence (AI). 

With collaborative experts spanning healthcare markets, disease areas, and data science disciplines, DRG clients have unprecedented access to the expertise, data, and AI-technology solutions they require to anticipate customer needs and generate new solutions to healthcare challenges. DRG's market access solutions give life sciences the most comprehensive view of patient access and payer and health system dynamics at local levels for the global healthcare ecosystem. 

For more information visit: http://decisionresourcesgroup.com/",100 District Ave,,Burlington,Massachusetts,01803,US,"Burlington, Massachusetts",,,Privately Held,"100 District Ave, Burlington, Massachusetts, 01803, US",Hospital & Health Care
https://www.linkedin.com/company/815441/about,https://www.linkedin.com/company/researchcraft,http://www.researchcraft.com,Researchcraft Limited,01926 424 518,2- 10 employees,6 on LinkedIn,"During our 25 years we have developed a reputation for creatively combining the proven and the new to give our clients insightful, actionable, value for money research whatever their business objectives. 

Strategy development, segmentation, product development or testing, brand tracking, marketing effectiveness and customer experience/ relationships are our main specialisms.",Regent House,50 Holly Walk,Leamington Spa,Warwickshire,CV32 4HY,GB,"Leamington Spa, Warwickshire",1995,"Market Research, Ad Tracking, Brand Tracking, U&A's, Product Testing, Concept Testing, Segmentation, Shopper Studies, Customer Experience, NPD, Consumer Needs, Customer Satisfaction, Branding/ Positioning, Pricing, Packaging, Retail, Healthcare, Financial Services, International, Brand strategy",Privately Held,"Regent House, 50 Holly Walk, Leamington Spa, Warwickshire, CV32 4HY, GB",Market Research
https://www.linkedin.com/company/4857153,https://www.linkedin.com/company/by433,http://www.by433.com,433,,11- 50 employees,119 on LinkedIn,"433 is the largest social sports community in the world. Bringing you the latest news fast. The funniest clips and the most remarkable background stories are also brought to you by 433. 433 is not your average sports platform. A high dose of humor and tongue-in-cheek style, that is 433.

After the establishment in 2013, 433 started to grow exponentially. Today we have 55 million followers in total. The constant flow of new and classic content makes 433 one of the fastest growing sports communities in the world. 

âš½  433 is the #1 global online football community > 50 million followers in total (> 32.6 million on main Instagram account @433), > 5 billion impressions a month, > 1 billion views a month

âš½  #1 Instagram sports account globally measured by #views and #reactions

âš½  #1 in highest engagement per video: globally! Bigger than NBA, Bleacher Report or ESPN.

âš½  Followed by 20,000 professional footballers, athletes & DJ's, like Cristiano Ronaldo, Marcelo, Pogba and Dybala, Usain Bolt, Djokovic, Thiem and TiÃ«sto.

âš½  Currently working on creative branded content campaigns with over 25 global A-brands and clubs such as Barcelona, Real Madrid, PSG, Man City, Bayern MÃ¼nchen, etc.

âš½  Strong access to key 15-34 year old loyal follower base has attracted large number of global A-brands (Nike, adidas, Puma, Audi, Red Bull, Unilever, Sony, LG, Samsung) as partners.

âš½  HQ in Amsterdam, the team consists of > 30 employees of 10 nationalities",Rigakade 20,,Amsterdam,North Holland,1013,NL,"Amsterdam, North Holland",2013,,Public Company,"Rigakade 20, Amsterdam, North Holland, 1013, NL",Internet
https://www.linkedin.com/company/28655206,https://www.linkedin.com/company/theopenmike,https://www.youtube.com/channel/UCk6ri7PUXhnc7rrBICd9fwA/about?edit_links=1&disable_polymer=true#c4-primary-header-contents,#TheOpenMike Podcast Show,,2- 10 employees,5 on LinkedIn,"#TheOpenMike
An entrepreneurs view on high growth strategies and how to bridge the gap between the 'Idea'â€‹ and successful ""implementation'â€‹

This is a weekly podcast show with audience participation and live Q&A on all aspects of business, inbound marketing, personal development and high growth business engines with executable strategies you can apply to your business today.

- Hosted by Mike Midgley who is an experienced entrepreneur and executive board professional with venture capital experience and a proven track record in high growth business strategies. 

- Throughout his career, Mike has achieved successful six and seven-figure exits plus he has raised over Â£1.6m in Venture capital and franchised his businesses over 68 times. 

- Mike is a Public Speaker, Angel Investor, Executive Coach and Non-Executive Director working with a select few of motivated next level entrepreneurs.

- Mike still plays an active role as the high growth strategist within The SuccessHub's HubSpot Inbound Agency.

Subscribe to the channel for regular updates https://www.youtube.com/channel/UCk6ri7PUXhnc7rrBICd9fwA/about?edit_links=1&disable_polymer=true#c4-primary-header-contents",2 Princes Square,Bradford Road,Leeds,West Yorkshire,LS14HY,GB,"Leeds, West Yorkshire",2016,,Privately Held,"2 Princes Square, Bradford Road, Leeds, West Yorkshire, LS14HY, GB",Broadcast Media
https://www.linkedin.com/company/18027982,https://www.linkedin.com/company/1-key-solution,http://1keysolution.co.uk,1 Key Solution,0116 274 2601,11- 50 employees,15 on LinkedIn,"A fascinating marketing strategy backed with a brilliant design can make a huge difference to your business. It will help you stand out in a crowded market place. 

1 Key Solution was founded in 2008 in Leicester. Our creative corporate designing team in a Leicester and Birmingham are offering the comprehensive market coverage and complete solution to value.

Our passion is to provide the state of the art services. We Empower Our Clients to Succeed.

As creative and innovative designers our greatest focus is the growth and development of our companions. 1 Key Solution assists you to grow your successful business. We believe in helping you develop maintainable performance that brings your vision to Life through world class prospective.

According to our clientâ€™s need, we have the ability to offer services to various sized businesses. 
-	Graphic Design
-	Web Development 
-	SEO
-	Printing 
-	Signage
-      Social Media Marketing",30 Coleman Road,,Leicester,,LE5 4AD,GB,"Leicester, None",2008,"Social Media Marketing, Branding, Web Development, Printing",Privately Held,"30 Coleman Road, Leicester, LE5 4AD, GB",Marketing & Advertising
https://www.linkedin.com/company/10843377,https://www.linkedin.com/company/its10xtravel,https://10xtourism.com,10x Tourism,020 3858 0058,11- 50 employees,11 on LinkedIn,"WHAT WE DO: 

Our mission is to help people sustainably enjoy life-changing travel experiences. That's why we work with ambitious tour operators, DMCs and travel agents who want to get more bookings online. 

We do that with our unique 'Get More Bookings'â€‹ sales funnel that attracts, educates and converts your ideal clients.

HOW WE HELP YOU: 

We help you break the 7 and 8-figure sales barrier and stand out from your competitors with a tried and trusted digital marketing strategy. 

WHO WE WORK WITH: 

Tour operators, DMCs, national and local tourism organisations from around the world, incl.:

ğŸ’¡ Ski & Chalet Operators
ğŸ’¡ Bicycle Tours
ğŸ’¡ Golf Tours
ğŸ’¡ Ecotourism Operators
ğŸ’¡ Mountain Climbing 
ğŸ’¡ Fishing Expeditions
ğŸ’¡ Safari Tours
ğŸ’¡ Hiking Tours
ğŸ’¡ National Tourism Boards
ğŸ’¡ Regional Tourism Boards

WHO WE ARE:

The team at 10x Tourism truly live and breathe the travel industry. With headquarters in the UK, we promote a location independent lifestyle that brings about a dynamic perspective and global insight.

WHAT OTHERS SAY: 

ğŸ‘ â€œIâ€™m delighted with our marketing strategy. With 10x Tourism weâ€™ve increased sales by 38% in six months!â€ - Guy Whitehead, The Leap

ğŸ‘ â€œYou guys are worth every penny. I feel like we have someone that â€˜gets itâ€™ finally with regard to our business.â€ - Sam Thomas, More Mountain

ğŸ‘ â€œI really appreciate your ability to create our personal â€˜voiceâ€™ in the email series you put together. Fantastic!â€ - Julie Robinson, Bicycle Adventures

ğŸ‘ â€œThe best online marketing strategy weâ€™ve doneâ€ - Clara CallÃ­s, Barcelona Guide Bureau

ğŸ‘ â€œKnowing 10x Tourism had expertise not only in the travel industry but also in the ski industry was a big incentive for us.â€ - Ben Badger, Momentum Ski

ğŸ‘ â€œ(10x Tourism) have very good ideas â€“ innovative and new. They are a team thatâ€™s young, energetic and full of ideas, and they deliver their products on time""â€‹ - Monica Fachin, Avventure Bellissime

Get in touch to see how we can help you grow your business.",35 Little Russell Street,1st Floor,London,London,WC1A 2HH,GB,"London, London",2012,"Content Marketing, Digital Marketing, Lead Generation, Digital Strategy, Conversion Optimisation, Travel Industry, Travel Marketing, Sales Automation, Targeted Advertising, Customer Relationship Management",Privately Held,"35 Little Russell Street, 1st Floor, London, London, WC1A 2HH, GB",Marketing & Advertising
https://www.linkedin.com/company/2765722,https://www.linkedin.com/company/123-reg-co-uk,http://www.123-reg.co.uk/,123 Reg,,51- 200 employees,34 on LinkedIn,"123 Reg was launched in 2000, and in the intervening years, has grown into the UK's largest domain registrar, having registered over 3 million domain names. Our philosophy is simple: the internet is for the many, not the few, which is why every single product is designed for the small business owner looking for an easy, hassle-free way of getting online. We have drawn together a range of easy to use tools and services to help our customers to get online, create their first website, and make a success of their business online. Whether you're tech savvy or a complete novice, we have the tools and platforms to help you build your dream site.

We have over 800,000 customers and they have nearly 800,000 active websites. These websites are either hosted by 123 Reg in our state-of-the-art UK based data centres or by our customers directly. We are part of the largest, privately owned hosting company in Europe. We are proud of all we have achieved over the years having won awards such as the 'Best Domain Registration'â€‹ award from Start Your Business magazine in 2014 and 2015, and were named Best Web Host 2015 by TechRadar Pro.

In April 2017, 123 Reg was acquired by GoDaddy, the worldâ€™s largest technology provider dedicated to small businesses.

Our passion is to get businesses just like yours online, and to help you succeed. ","5th Floor, The Shipping Building, The Old Vinyl Factory",252 - 254 Blyth Road,Hayes,Middlesex,UB3 1HA,GB,"Hayes, Middlesex",2000,"Small Business Online Services, Personal and Business Email Solutions, Small Business Marketing Solutions, Web-based Tool for Website Creation, Domain Name Registration, Website and Online Security Options, Website Hosting, Server Hosting Solutions",Privately Held,"5th Floor, The Shipping Building, The Old Vinyl Factory, 252 - 254 Blyth Road, Hayes, Middlesex, UB3 1HA, GB",Internet
https://www.linkedin.com/company/71977922,https://www.linkedin.com/company/13chats,https://13chats.com,13Chats,+1 201 254 7704,11- 50 employees,10 on LinkedIn,"All-in-one online service for marketers, salespeople, and support teams. ",4 Old Wood Rd,,Edgewater,ĞÑŒÑ-Ğ”Ğ¶ĞµÑ€ÑĞ¸,07020,US,"Edgewater, ĞÑŒÑ-Ğ”Ğ¶ĞµÑ€ÑĞ¸",2019,,Public Company,"4 Old Wood Rd, Edgewater, ĞÑŒÑ-Ğ”Ğ¶ĞµÑ€ÑĞ¸, 07020, US",Computer Software
https://www.linkedin.com/company/101340,https://www.linkedin.com/company/1hqbrandagency,http://www.1hqglobal.com,1HQ Brand Agency,,51- 200 employees,82 on LinkedIn,"We are a brand agency of strategic and creative thinkers, specialising in making our clients'â€‹ brands more productive by continually influencing consumer and shopper behaviour with big ideas, persuasively expressed.

At their most productive, brands are active agents of change â€“ shaping and influencing our thoughts, feelings and behaviour. To effect this change, brands must clearly define and communicate what it is they do for usâ€¦ and do for us better than their competitors.

To make your brands more productive, so that when they meet the competitive reality of the market place, their potential to influence, engage and connect with your consumer is maximised.",The Old Brewery,22 Russell St,Windsor,Berkshire,SL4 1HQ,GB,"Windsor, Berkshire",1993,"Strategy, Retail, Packaging, Brand Design, Digital, Consumer Insight, Semiotics, Innovation, Design, FMCG",Privately Held,"The Old Brewery, 22 Russell St, Windsor, Berkshire, SL4 1HQ, GB",Design
https://www.linkedin.com/company/2448267,https://www.linkedin.com/company/2yolk-branding-&-design,http://www.2yolk-branding.com,2yolk,,11- 50 employees,13 on LinkedIn,"2yolk is an award-winning brand consulting and design agency based in Athens, Greece. Since our founding in 2003, we have strived to create brands that are visionary, innovative, meaningful and inspiring. Working alongside both new and well-established brands, we help our clients to better understand who they are, who they want to become, and how to communicate in order to strengthen their brand equity.  

It is our belief that brands should be build from the inside out and that great design and result-oriented strategy can, and should be combined. The result of this belief is brands that are distinctive, engaging and successful.

We are a close-knit community of designers, brand strategists, marketers, copywriters and consumer psychologists, fully invested in our work, passionate and committed on delivering brand stories that are skillfully and effectively told. 

Whether we are partnering with a single-product food startup, a cultural institution or a multinational enterprise, we put our clients first and we always speak our minds. We have worked in 3 continents, successfully collaborated with more than 100 brands and won 28 international and national design awards. 

2yolk provides a complete 360o array of services, ranging from strategic design to final production. 
In particular:
ğŸ”¸Brand strategy and positioning
ğŸ”¸Visual identity and design
ğŸ”¸Naming and verbal identity
ğŸ”¸Environmental branding
ğŸ”¸Web Design & Social Media

2yolk is a member of the Hellenic Association of Advertising-Communication Agencies (edee.gr) at the sector of Branding & Design. Amongst our inspiring clients, we count Unilever, Upfield, Mondelez International, Coca-Cola HBC, AB Vassilopoulos, Loulis Mills, Chios Gardens, Vechro, Hatziyiannakis DragÃ©es.",55 Attikis Str.,,Vrilissia,Athens,15235,GR,"Vrilissia, Athens",2003,"Brand Strategy, Design Strategy, Brand Valuation, Visual Systems, Positioning, Naming, Brand Architecture, Verbal Identity, Packaging Design, Corporate Identity, Retail Identity",Privately Held,"55 Attikis Str., Vrilissia, Athens, 15235, GR",Design
https://www.linkedin.com/company/2280228,https://www.linkedin.com/company/3-sided-cube,https://3sidedcube.com,3 SIDED CUBE,01202611612,51- 200 employees,51 on LinkedIn,"3 Sided Cube is an agency of creatives and technologists who collaborate with extraordinary startups, organisations and enterprise solutions to create life-saving and life-changing digital solutions.

Our passion for building tech for good has aided global brands such as American Red Cross, Boots, RNLI, LUSH, RSPB, Lloyds Banking Group and Nordstrom to solve problems that have championed the genius over the generic. 

This focus on creating apps, websites and products with the ability to change lives has resulted in 3 Sided Cube winning acclaimed awards such as The Digital Communications Award for Best Mobile App, a Webby Award for Best Health App, plus several awards for best charity app. 

On top of this, our innovative approach to problem-solving earned us a place on the Top 50 Creative Agencies published by Creative England in association with The Telegraph.

Cubeâ€™s proven process of working closely with our clients to deliver technology solutions has helped to create international disaster preparedness apps, placed first aid and emergency care in the hands of people who need it the most and raised millions of dollars for charities; saving lives every day. 

Our Accolades

Winner of the ""Charity & Not for Profit""â€‹ award at the Digitals - Econsultancy & New Media Age

Winner of the ""Not-for-Profit Website or Campaign""â€‹ award at the Dadi Awards - The Drum

Winner of the ""Best use of Technology""â€‹ Award by Umbraco CMS.

Winner of the ""Best Mobile App""â€‹ at the European Digital Communication Awards.

Winner of the ""Best use of digital""â€‹ beating the likes of Sainsbury's, Unilever & McDonalds.

Winner of the â€œBest Health Appâ€ award - Webby Awards.

Get in touch: holla@3sidedcube.com",Telephone House,18 Christchurch road,Bournemouth,Dorset,BH1 3NE,GB,"Bournemouth, Dorset",2009,"Mobile Applications, Web Applications, Digital Strategy, Websites, Rapid Prototyping, Mobile Development, Web Development, iOS, Android, WordPress, Apps",Privately Held,"Telephone House, 18 Christchurch road, Bournemouth, Dorset, BH1 3NE, GB",Information Technology & Services
https://www.linkedin.com/company/18974414,https://www.linkedin.com/company/303london,https://303.london/,303 London,020 3137 1670,11- 50 employees,22 on LinkedIn,303 is a creative digital marketing agency that helps direct to consumer businesses create and amplify their brand ğŸ’¡,"Coda Studios, Munster Road, Fulham",24.1,London,,SW6 6AW,GB,"London, None",2016,"social media, content creation ",Privately Held,"Coda Studios, Munster Road, Fulham, 24.1, London, SW6 6AW, GB",Marketing & Advertising
https://www.linkedin.com/company/11201305,https://www.linkedin.com/company/3pb-barristers,http://www.3pb.co.uk,3PB Barristers,,51- 200 employees,142 on LinkedIn,"3PB is an established Barristers'â€‹ Chambers with offices in London, Birmingham, Bournemouth, Bristol, Oxford, and Winchester.",3 Paper Buildings,Temple,London,,EC4Y 7EU,GB,"London, None",1892,"Clinical Negligence, Construction & Engineering, Crime, Education, Employment & Discrimination, Family, Mediation, Commercial, Personal Injury, Public & Regulatory, Sports, Property & Estates",Privately Held,"3 Paper Buildings, Temple, London, EC4Y 7EU, GB",Law Practice
https://www.linkedin.com/company/27180936,https://www.linkedin.com/company/43-clicks-north,http://www.43clicksnorth.co.uk,43 Clicks North,,11- 50 employees,32 on LinkedIn,"Strength in Numbers ğŸ‹ï¸ ğŸ”¢

Weâ€™re here to be the catalyst for your business, challenging you to achieve digital success online and beyond. Every hero needs the right guiding character, so think of us as the Dumbledore to your Harry, the Gandalf to your Frodo, or the Yoda to your Skywalker.

Each clientâ€™s story is unique but we have the expertise and experience to identify the right path for you and deliver the results you need.",33 Bishop Lane,,Hull,England,HU1 1PA,GB,"Hull, England",2017,"SEO, PPC, Paid Social, Digital PR, CRO, Web Development, Creative Content, Digital Strategy",Privately Held,"33 Bishop Lane, Hull, England, HU1 1PA, GB",Marketing & Advertising
https://www.linkedin.com/company/5057442,https://www.linkedin.com/company/44-communications-ltd,http://www.44communications.co.uk,44 Communications Ltd,,11- 50 employees,20 on LinkedIn,"We are an industry-leading internal communications agency with a values-led, partner-based business model.

44 aims to be a new kind of creative communications company but in actual fact our core offering is founded on very simple and very traditional ideas. Just two ideas in fact:

Great personal service and keeping the promises we make.

The new, and more innovative part of 44, is that we set out from the start to be a true values-driven enterprise and one that operates a scalable partner-based business model.

The name 44 comes from the initial number of partners we agreed alliance terms with.

This modern collaborative model enables us to tailor specialist teams dedicated to the needs of our clients'â€‹ projects. First, we assess the requirements of each client project. Then, we bring together the right creative specialists with the right skills and enthusiasm to deliver the best possible solution.",Somerset House,,Leamington Spa,None (International),CV32 5QN,US,"Leamington Spa, None (International)",2007,"Project planning and delivery, Editorial, Print publishing, Digital communications, Print and digital design, Photography and video production, Strategic planning, Research",Public Company,"Somerset House, Leamington Spa, None (International), CV32 5QN, US",Publishing
https://www.linkedin.com/company/1572531,https://www.linkedin.com/company/8-track-music-solutions,http://www.8trackmusicsolutions.co.uk,8track Music Solutions,44 207 438 2038,2- 10 employees,4 on LinkedIn,"8track Music specialise in music direction and bespoke playlist curation for businesses.

We help hospitality, retail and leisure companies develop a unique soundtrack; helping brands use music to engage with customers, build an audio identity and create a better guest experience.

With over 10 years experience, we use our expertise to produce music concepts that work; helping brands use music creatively to meet their business objectives. 

Our services include:
*Full music consultancy: advice on creative direction,  building music playlists that are creative and commercially aware, advising on sound during set up
*Providing 8track Music software to run music libraries from, our tech that is simple to install and use
*Branded online account set-up and management
*Supplying live music, DJs and playlists regularly or for one-off special events or immersive experiences

We take great pride creating a unique soundtrack for each client, working with you to complement design, concept, environment and clientele.

Don't just take our word for it...

""8track Music Solutions has become an integral part of the way we do things at Barrio Bars. Having constantly updated playlists with a great variety of on-brand tunes and the flexibility to change things up or play to a schedule has helped us make sure we always deliver on our music offering - can't rate them highly enough!!""â€‹
 Tim Carroll | Barrio Bars 

If you'd like to find out more please email claire@8trackmusicsolutions.com",,,London,London,WC1A,GB,"London, London",2004,"Music Consultancy, Background Music, Business Audio Solutions, Sound Design, Music For Bars, Music For Retail, Music For Hotels, Music for Restaurants, Music For Gyms & Spas, Hospitality, Music Curation",Sole Proprietorship,"London, London, WC1A, GB",Music
https://www.linkedin.com/company/9421096,https://www.linkedin.com/company/80six-ltd,http://www.80-six.com,80six Ltd,0333 5777 899,11- 50 employees,14 on LinkedIn,"80six is a leading video technology rental company providing high end equipment and world-class technical services for live entertainment, virtual production, film & TV drama, broadcast, (e)sports and corporate events.

Our team is comprised of some of the best industry professionals, from project managers to video system engineers, producers, visual effects artists and creatives. 80six drives technical innovation and leads from the front.

From LED screens to cameras, video control systems to real-time video content creation, we invest time and resources into the R&D of emerging technologies which enables our team to deliver complex and stunning creations time and time again.

Whether it's a global music tour or a virtual event hosted on one of our virtual production or xR stages, 80six has the technical knowledge, equipment and dedication to ensure your productions are always a success.

Introducing Virtual Production Studios âœ www.virtualproductionstudios.com   

Virtual Production Studios by 80six is a state-of-the-art virtual production facility using cutting edge video technology to host unique virtual productions and events across two separate stages.

Each LED stage can engage an audience through immersive virtual environments using mixed and augmented reality all controlled from a central gallery.",Slough Interchange Industrial Estate,Whittenham Close,Slough,Berkshire,SL2 5EP,GB,"Slough, Berkshire",2015,"Audio Visual Rental, video technnology, Virtual production, LED Displays, Live Events, Event Production, Virtual Stages , LED Volume, Unreal Engine",Privately Held,"Slough Interchange Industrial Estate, Whittenham Close, Slough, Berkshire, SL2 5EP, GB",Media Production
https://www.linkedin.com/company/2550162,https://www.linkedin.com/company/8billionideas,https://www.8billionideas.com/,8billionideas,020 7754 0398,11- 50 employees,28 on LinkedIn,Helping children change the world ğŸŒ ,22-24 Claremont Road,,Surbiton,England,KT6 4QU,GB,"Surbiton, England",,"entrepreneurship, education, innovationmanagement, innovation",Privately Held,"22-24 Claremont Road, Surbiton, England, KT6 4QU, GB",Education Management
https://www.linkedin.com/company/87785,https://www.linkedin.com/company/999-design,http://www.999design.com,999 Design,,11- 50 employees,105 on LinkedIn,"Creating since 1982, we are an established branding, design and digital agency.

We are proud to be one of the top DBA 'Effective Agencies'â€‹, winning 17 DBA awards over the past ten years.

We love to challenge, inspire and engage the hearts and minds of different audiences to connect brands with people.

We seek out the trigger points that influence perceptions and decisions, and strive to understand our clients'â€‹ businesses and their customers'â€‹ needs. ",58 Elliot Street,58 ELLIOT STREET,Glasgow,Scotland,G3 8DZ,GB,"Glasgow, Scotland",1982,"Design, Branding, Communications, Digital, Packaging, E-Commerce, Web Design, User Experience, Web Usability, CMS Development, Search Engine Optimisation, Social Media Marketing, Email Marketing, Multi-lingual website builds, Chatbot Development",Privately Held,"58 Elliot Street, 58 ELLIOT STREET, Glasgow, Scotland, G3 8DZ, GB",Design
https://www.linkedin.com/company/67739427,https://www.linkedin.com/company/alexanderandbailey,https://www.aandbmarketing.com,A&B Marketing,,2- 10 employees,5 on LinkedIn,ğŸ“£,Bixteth Street,518B Cotton Exchange Building,Liverpool,England,L39LQ,GB,"Liverpool, England",2020,"Social Media Marketing, Paid Advertising, PPC, Digital Marketing, Content Marketing, Search Engine Optimisation, Marketing Coaching, Marketing Training, Social Media Advertising",Privately Held,"Bixteth Street, 518B Cotton Exchange Building, Liverpool, England, L39LQ, GB",Marketing & Advertising
https://www.linkedin.com/company/27011953,https://www.linkedin.com/company/accelerate-agency-uk,https://accelerateagency.ai,â—¯ accelerate agency,01173361103,51- 200 employees,53 on LinkedIn,"accelerate was born out of our passion for data, content and SEO. 

Over the many years of working agency-side and in-house, we had seen enough of sub-par SEO for premium prices. 

With our combined expertise, we knew we could offer something that was unique to the industry - genuine results. 

We've worked with major SaaS brands, consistently delivering what we say we will; namely, growth and ROI, and are invested in our clients' success as if it were our own.",16 Orchard Street,,Bristol,England,BS1 5DX,GB,"Bristol, England",2017,"SEO, Content Marketing , Content Partnerships, Digital PR, Automation, SaaS marketing",Privately Held,"16 Orchard Street, Bristol, England, BS1 5DX, GB",Marketing & Advertising
https://www.linkedin.com/company/13683613,https://www.linkedin.com/company/alive-japan,http://alive-web.co.jp/,ã‚¢ãƒ©ã‚¤ãƒ–æ ªå¼ä¼šç¤¾,,51- 200 employees,19 on LinkedIn,"Alive is a web design and web marketing agency and Salesforce partner, headquartered in Nagoya, Japan and with offices in Japan, Vietnam and the U.S. We have experience helping clients with web design and digital marketing initiatives for over 15 years. Our focus is creating beautifully designed websites and engaging advertisements that drive sales and produce results for our clients. 

ç§ãŸã¡ã€ã‚¢ãƒ©ã‚¤ãƒ–æ ªå¼ä¼šç¤¾ã¯15å¹´ä»¥ä¸Šã€Webãƒãƒ¼ã‚±ãƒ†ã‚£ãƒ³ã‚°ã¨ãƒ‡ã‚¶ã‚¤ãƒ³ã§ã‚¯ãƒ©ã‚¤ã‚¢ãƒ³ãƒˆã®è²©ä¿ƒãƒ»å–¶æ¥­æ´»å‹•ã§æˆæœã‚’å‡ºã™ã“ã¨ã‚’å®Ÿè·µã—ã¦ãã¾ã—ãŸã€‚ãŸã ç¶ºéº—ãªãƒ‡ã‚¶ã‚¤ãƒ³ã‚’ä½œã‚‹ã€ãŸã å¤§é‡ã«éœ²å‡ºã™ã‚‹åºƒå‘Šã‚’è¡Œã†ãªã©ã®æ„å‘³ã®ãªã„ã“ã¨ã¯ã›ãšã€ã‚¯ãƒ©ã‚¤ã‚¢ãƒ³ãƒˆã®å£²ä¸Šã«è²¢çŒ®ã§ãã‚‹ã“ã¨ã«ãƒ•ã‚©ãƒ¼ã‚«ã‚¹ã—ã€çµæœã‚’å‡ºã—ã¦ãã¾ã—ãŸã€‚ã‚‚ã£ã¨åŠ¹æœçš„ãªWebãƒãƒ¼ã‚±ãƒ†ã‚£ãƒ³ã‚°ã‚’å®Ÿæ–½ã—ã€è‡ªç¤¾ã‚’ã•ã‚‰ã«æˆé•·ã•ã›ã¦ã„ããŸã„ã¨ãŠè€ƒãˆã®ä¼æ¥­æ§˜ã«ã¯ã€ç§ãŸã¡ã®ãƒã‚¦ãƒã‚¦ã¨å®Ÿè¡ŒåŠ›ãŒãŠå½¹ã«ç«‹ã¤ã“ã¨ã‚’ç´„æŸã—ã¾ã™ã€‚

https://alive-web.co.jp/",åŒºéŒ¦1-15-8 ,2F,åå¤å±‹,æ„›çŸ¥çœŒ,ã€’460-0003,JP,"åå¤å±‹, æ„›çŸ¥çœŒ",2001,"ãƒ›ãƒ¼ãƒ ãƒšãƒ¼ã‚¸ã€Webã‚µã‚¤ãƒˆåˆ¶ä½œ, ãƒ©ãƒ³ãƒ‡ã‚£ãƒ³ã‚°ãƒšãƒ¼ã‚¸åˆ¶ä½œ, å†…éƒ¨SEOå¯¾ç­–, ãƒªã‚¹ãƒ†ã‚£ãƒ³ã‚°åºƒå‘Šé‹ç”¨, ãƒãƒŠãƒ¼åºƒå‘Šã€ãƒªãƒãƒ¼ã‚±ãƒ†ã‚£ãƒ³ã‚°åºƒå‘Šé‹ç”¨, facebookã€ã‚¤ãƒ³ã‚¹ã‚¿ã‚°ãƒ©ãƒ åºƒå‘Šé‹ç”¨, CRMã€ãƒãƒ¼ã‚±ãƒ†ã‚£ãƒ³ã‚°ã‚ªãƒ¼ãƒˆãƒ¡ãƒ¼ã‚·ãƒ§ãƒ³, ã‚¢ã‚¯ã‚»ã‚¹è§£æã€ãƒ’ãƒ¼ãƒˆãƒãƒƒãƒ—è§£æ, è²©ä¿ƒã‚³ãƒ³ã‚µãƒ«ãƒ†ã‚£ãƒ³ã‚°, å†™çœŸæ’®å½±, ã‚³ãƒ³ãƒ†ãƒ³ãƒ„ãƒãƒ¼ã‚±ãƒ†ã‚£ãƒ³ã‚°, ã‚³ãƒ¼ãƒ‡ã‚£ãƒ³ã‚°, å‹•ç”»åˆ¶ä½œ, ã‚µãƒ¼ãƒç®¡ç†, ã‚·ã‚¹ãƒ†ãƒ æ§‹ç¯‰",Privately Held,"åŒºéŒ¦1-15-8 , 2F, åå¤å±‹, æ„›çŸ¥çœŒ, ã€’460-0003, JP",Marketing & Advertising
https://www.linkedin.com/company/13295474,https://www.linkedin.com/company/thelearningfrontier,http://www.learningfrontier.cn,ä¹å­¦å‰æ²¿The Learning Frontier,+861067753268,11- 50 employees,7 on LinkedIn,"ä¹å­¦å‰æ²¿è‡´åŠ›äºä¸ºå­©å­å’Œå®¶åº­æä¾›ä¸ªæ€§åŒ–çš„å­¦ä¹ æŒ‡å¯¼ä¸æ”¯æŒã€‚æˆ‘ä»¬åœ¨å¿ƒç†ã€æ•™è‚²ã€åº”ç”¨è¡Œä¸ºåˆ†æã€è¨€è¯­è¯­è¨€æ²»ç–—ä»¥åŠèŒèƒ½æ²»ç–—ç­‰é¢†åŸŸçš„åŒè¯­ä¸“ä¸šæ²»ç–—å¸ˆå°†å…±åŒåˆä½œç»„å»ºä¸€æ”¯å¤šé¢†åŸŸçš„å­¦ç§‘å›¢é˜Ÿï¼Œæ¥å¸®åŠ©æœ‰éœ€æ±‚çš„å®¶åº­æ›´å¥½çš„ç†è§£å­©å­çš„æˆé•¿å‘è‚²ï¼Œå¹¶ä¸”å¸®åŠ©å­©å­åœ¨å­¦ä¹ ç”Ÿæ´»ä¸­å‘æŒ¥è‡ªå·±çš„æ½œèƒ½ã€‚ä¹å­¦å‰æ²¿ä¹Ÿä¸ºæ•™è‚²å·¥ä½œè€…æ‹“å±•æ›´å¤šçš„å­¦ä¹ å’ŒåŸ¹è®­æœºä¼šï¼Œå¸®åŠ©ä»–ä»¬æ›´å¥½åœ°æˆä¸ºå­©å­å’Œå®¶åº­çš„æˆé•¿ä¼™ä¼´ã€‚
The Learning Frontier is dedicated to providing personalized guidance and support services for children and families in Beijing. Bilingual specialists in mental health, education and learning, applied behavior analysis, speech and language and occupational therapy work as a multidisciplinary team to help families better understand the growth and development of children and how to help each child live up to their potential in school and in life. The Learning Frontier also aims to expand learning and training opportunities for educators so that they can be better partners to children and families.

è¯„ä¼°Assessment 
é€šè¿‡å¤šé¢†åŸŸå­¦ç§‘çš„ä¸“ä¸šæµ‹è¯„å¸®åŠ©é‰´å®šè¡Œä¸ºé—®é¢˜ã€å­¦ä¹ å›°éš¾ã€æƒ…ç»ªé—®é¢˜ã€æ²Ÿé€šæˆ–è¿åŠ¨éšœç¢ç­‰é—®é¢˜çš„æ½œåœ¨åŸå› åŠç¨‹åº¦ã€‚
Multidisciplinary and professional assessments identify underlying causes and extent of behavior problems, learning difficulty in school, emotional problems, communication and/or motor problems. 

è¾…å¯¼å’¨è¯¢Therapy and Consultation	
ç›´æ¥å¯¹å­©å­æˆ–å®¶åº­è¿›è¡Œè¾…å¯¼æ¥å¸®åŠ©è§£å†³å›°éš¾ã€‚
Directly working with the child or family to remediate difficulties. 
å¸®åŠ©å®¶é•¿å’Œè€å¸ˆæ€è€ƒå¦‚ä½•ç”¨æœ€å¥½çš„æ–¹å¼å¸®åŠ©å­©å­ã€‚
Advise parents and teachers on strategies to best support the child. 

å·¥ä½œåŠåŠåŸ¹è®­Workshops and Training
å¤šé¢†åŸŸå­¦ç§‘å›¢é˜Ÿå¸®åŠ©è€å¸ˆå’Œå®¶é•¿ç†è§£å­©å­çš„æˆé•¿å‘è‚²ï¼Œæˆ‘ä»¬ç›¸ä¿¡ï¼šç†å¿µä¸ä¿¡æ¯çš„å…±äº«èƒ½å¤Ÿè®©æ¯ä¸ªäººçš„æ€æƒ³éƒ½æ›´ä¸°å¯Œä¸”æ›´èƒ½å—åˆ°å¯å‘ã€‚
The multidisciplinary team helps the teachers and other adults in a childâ€™s life understand child development, and also dedicated to the idea that sharing ideas and information is a stimulating and enriching for all.

å…´è¶£åŠæŠ€èƒ½å°ç»„Enrichment activities
ä¹å­¦å‰æ²¿çš„å›¢é˜Ÿå°†æ¢ç©¶å¹¶æ­å»ºä¸åŒçš„æ–¹æ³•ï¼Œä½¿å­©å­ä»¬åœ¨è¯¾å¤–èƒ½å¤Ÿå…´è‡´ç›ç„¶çš„å­¦ä¹ ã€‚
The Learning Frontier team explores ways to help all children get excited and learn outside the classroom. 

","æœé˜³åŒºä¸œæŸè¡—11å·å››å±‚4th Floor, BCIS ECC, No.11 DongBai Street, Chaoyang District",,åŒ—äº¬Beijing,åŒ—äº¬Beijing ,100022,CN,"åŒ—äº¬Beijing, åŒ—äº¬Beijing ",2017,"èŒèƒ½è¾…å¯¼Occupational Therapy, è¨€è¯­è¾…å¯¼Speech and Language Therapy, è¡Œä¸ºè¾…å¯¼Behavioral Therapy, å¿ƒç†å’¨è¯¢Counseling, æ•™è‚²å¿ƒç†æµ‹è¯„Psycho-educational Assessments, å®¶é•¿è¯¾ç¨‹Educational Parenting Group, å…´è¶£æŠ€èƒ½å°ç»„Enrichment Activity",Privately Held,"æœé˜³åŒºä¸œæŸè¡—11å·å››å±‚4th Floor, BCIS ECC, No.11 DongBai Street, Chaoyang District, åŒ—äº¬Beijing, åŒ—äº¬Beijing , 100022, CN",Education Management
https://www.linkedin.com/company/10616432,https://www.linkedin.com/company/my-abaka,http://www.abaka.me/,ABAKA,,11- 50 employees,35 on LinkedIn,"ABAKA is an award-winning Enterprise SaaS platform, powered by Artificialâ€¯Intelligence, specifically designed to create digital customer engagements and digital advice on wealth, saving, life insurance and banking.

For more information, visit www.abaka.me and follow us on Twitter at @My_Abaka.

ABAKA's AI recommendation engine helps Financial Institutions create and display the right actionable recommendations to the right people, at the right time with Next Best Action. 

We help incumbents deploy a strategy aligned to their business logic and refine recommendations to increase engagement and customer activation to unlock business value from data. 

Our timely and actionable customer insight delivers simple, intuitive, and hyper-personalized, digital client experiences that retain and expand new revenue streams.

Today institutions such as HSBC, Prudential, and Legal & General are licensing the ABAKA technologies across the globe to deliver outstanding customer experiences to their wealth clients and help these achieve financial security.

Fahd Rachidy, Founder and CEO of ABAKA: â€œWe must address customersâ€™ needs for financial education and advice, improve ease of access, and explain the choices over pensions and savings. The pensions industry is facing a huge challenge to achieve better outcomes for customers. We live in a brave new world where individuals bear the full responsibility of managing their savings, yet they can neither find help nor affordable financial advice. We need to educate, engage and empower customers through an excellent financial platform with an ultimate focus on improving their financial wellbeing.""â€‹

Specialities: Financial Wellbeing, Financial Education, Artificial Intelligence, Financial Advice, Employee Benefits, Software as a Service, Pensions, AI, Customer Experience, Customer Engagement and FinTech",111 Buckingham Palace Road,,London,England,SW1W 0SR,GB,"London, England",2015,"Financial Wellbeing, Financial Education, Artificial Intelligence, Financial Advice, Employee Benefits, Software as a Service, SaaS, Pensions, AI, FinTech, Customer Experience, Customer Engagement, hyper personalisation, hyper personalization",Privately Held,"111 Buckingham Palace Road, London, England, SW1W 0SR, GB",Computer Software
https://www.linkedin.com/company/11410761,https://www.linkedin.com/company/abcspor,http://www.abcspor.com,ABC Spor,,51- 200 employees,2 on LinkedIn,"MedyanÄ±n gÃ¼Ã§ odaÄŸÄ± olmasÄ± sebebiyle, haber gibi tek gerÃ§ek olan bir durum bile etki ve baskÄ± altÄ±nda deforme edilirken, yorum gibi zaten sÃ¼bjektif olan bir konunun deforme edilmeme olasÄ±lÄ±ÄŸÄ± yoktur. 

Bu geliÅŸmeler Ä±ÅŸÄ±ÄŸÄ±nda haberden ziyade, haberi hiÃ§bir baskÄ± ve etki altÄ±nda kalmadan doÄŸru ÅŸekilde yorumlayacak ve okuyucuya ulaÅŸtÄ±racak bir platforma ihtiyaÃ§ duyulur hale gelmiÅŸtir. 

ABCSPOR  yazmaktan keyif alan,  kendi yorumlarÄ±nÄ±, spor ile ilgili paylaÅŸmaya deÄŸer bulduklarÄ± konularÄ± dile getirdiÄŸi bir platform.olarak kuruldu. 

ABCSPORâ€™da, sadece futbol ve basketbol deÄŸil, sporun her tÃ¼rlÃ¼sÃ¼, tarafsÄ±z yorumlarla elden geldiÄŸince sizinle paylaÅŸÄ±yor.",-,,Montreal,Quebec,H9S 1A9,CA,"Montreal, Quebec",2014,"spor, haber",Privately Held,"-, Montreal, Quebec, H9S 1A9, CA",Newspapers
https://www.linkedin.com/company/890863,https://www.linkedin.com/company/abf-the-soldiers%27%E2%80%8B-charity,https://soldierscharity.org,ABF The Soldiers'â€‹ Charity,02079018900,51- 200 employees,120 on LinkedIn,"The official LinkedIn page of ABF The Soldiers' Charity - the British Armyâ€™s national charity. We support soldiers, veterans and their families, for life.

The scope of our work is huge. Half of our money is given direct to individuals to help in areas such as debt relief, mobility assistance, education bursaries, care home fees and respite breaks. The other half is given as grants to other charities and organisations.

Follow us:
www.facebook.com/soldierscharity
www.twitter.com/Soldierscharity
www.instagram.com/soldierscharity/",Mountbarrow House,6-20 Elizabeth Street,London,,SW1W 9RB,GB,"London, None",1944,"Welfare, Grants, Veterans, Soldiers, Fundraising, Events, British Army",Nonprofit,"Mountbarrow House, 6-20 Elizabeth Street, London, SW1W 9RB, GB",Non-profit Organization Management
https://www.linkedin.com/company/10729470,https://www.linkedin.com/company/abi-garage-doors,http://abigaragedoors.co.uk,ABi Doors,0808 196 0637,11- 50 employees,6 on LinkedIn,"ABi Doors is an independent business based in Leeds, West Yorkshire, that operates throughout the North of England. The company was established in 1989 by industry veteran Steve Pierce, who has over 40 years'â€‹ experience in the garage door and construction sectors.

We specialise in the supply and installation of garage doors, entrance doors, awnings, garage side doors and garage door automation, spare parts and repairs.

As a family-run organisation, we have relationships with all the leading manufacturers. This allows us to offer a range of options to suit our customersâ€™ needs without compromising on quality.

All members of our staff take great pride in the level of their workmanship. Our engineers are fully trained with recognised qualifications and we are committed to a programme of continued development.

We are a HÃ¶rmann main dealer and certified installer, an SWS UK approved distributor and installer and a Cedar Door authorised installer, as well as a certified Which? Trusted Trader.

In addition to supplying, installing and repairing the latest in garage and entrance door technology to private customers and homeowners, we are specialist suppliers to the trade market too. We install and supply doors for multiple national house builders, local authorities and other door companies and possess many yearsâ€™ experience working with architects, plans, specifications, drawings and self-build projects.

In caring about our planet and taking our environmental responsibility seriously, we are members of the ECO Stars (Efficient and Cleaner Operations) Fleet Recognition Scheme. All our timber products are FSC certified and we have a full environmental policy.

To finish, our after-sales service is second to none. We work closely with our partner manufacturers to support their warranty programs and have a dedicated technical support and spares department. We also produce a number of our own publications, how-to videos and info sheets to support the products we sell.",159 - 163 Buslingthorpe Lane,,Leeds,West Yorkshire,LS7 2DQ,GB,"Leeds, West Yorkshire",1989,"Garage Doors, Sectional Garage Doors, Up & Over Garage Doors, Roller Garage Doors, Side Sliding Garage Doors, Side Hinged Garage Doors, Timber Garage Doors, Garage Side Doors, Wicket Doors, Front Doors, Composite Front Doors, Steel Front Doors, Aluminium Front Doors, Awnings, Patio Awnings, Pergolas, Pergola Systems, Garage Door Automation, Garage Door Spare Parts, Garage Door Repairs",Privately Held,"159 - 163 Buslingthorpe Lane, Leeds, West Yorkshire, LS7 2DQ, GB",Construction
https://www.linkedin.com/company/10827113,https://www.linkedin.com/company/abpconsultancy,http://www.abpconsultancy.com,ABP Consultancy,,51- 200 employees,97 on LinkedIn,"We are a consultancy company specialised in developing tailored and â€œfit for purposeâ€ digital experiences.
â€‹
We built and continue to grow a dynamic and motivated team with a holistic knowledge that enables us to provide an extensive set of services that covers all key methodologies and technologies of process management. ABP is recognised by clients, partners and analysts as one of the top players in the Business Process Management (BPM) market.

We have a strong background based on years of hands-on projects on the customer side that we leverage an essential foundation for our approach as vendors.

We believe that processes are the heartbeat of any organisation. Delivering end-to-end processes provide a holistic view that enables tangible performance metrics, continuous improvement, and engaging user experiences.
â€‹
As a result of our background, as customers and vendors, we developed the concept of Intelligent processes merging traditional process management discipline with other key capabilities applied to specific process tasks. The systematic application of this method takes operational efficiency and continuous improvement to new levels.",Chesilton Road,Fulham Park House 1A,London,England,SW6 5AA,GB,"London, England",2014,"Robotics, BPM, AI, Content Management, Document Capture, Automation, Transformation",Privately Held,"Chesilton Road, Fulham Park House 1A, London, England, SW6 5AA, GB",Information Technology & Services
https://www.linkedin.com/company/2881412,https://www.linkedin.com/company/absolute-digital-media,https://absolute.digital,Absolute Digital Media - We're Hiring!,0800 088 6000,11- 50 employees,47 on LinkedIn,"Whilst others talk, we act ğŸ’¥ We're on a mission to become the best independent digital marketing agency in the UK with our services at the core of our success: SEO, Digital PR and PPC. 2021 Large Integrated Digital Agency of the Year & Integrated Search Campaign of the Year winners. Are you ready to take your marketing up a notch?

Drop us an email hello@absolute.digital or call 0800 088 6000 to speak to one of our expert team, today.",35 New Broad Street,,London,,EC2M 1NH,GB,"London, None",2008,"SEO, PPC, PR",Privately Held,"35 New Broad Street, London, EC2M 1NH, GB",Marketing & Advertising
https://www.linkedin.com/company/1570110,https://www.linkedin.com/company/acceleratedintelligence,http://acceleratedintelligence.co.uk,Accelerated Intelligence,,11- 50 employees,39 on LinkedIn,"Accelerated Intelligence, or Ai for short, is an integrated media agency that works with entertainment companies, global brands, notable individuals and PR agencies. We are a small but highly experienced and passionate team of editors, developers, designers, PRs and social media experts who specialise primarily in creating groundbreaking multi-media launches, content and social strategies. Though we specialise in digital and social media we work on all platforms and in all media, depending on the needs of our clients. Much of our work is ""white labelled""â€‹ on behalf of other digital or PR agencies who we act as advisors for, often supporting them and their clients in the background.
We are very proud to work on some of the most beloved film franchises and brands in history including Star Wars, Marvel and 007.","10-11 Archer St, Soho, London",,London,England,W1D 7AZ,GB,"London, England",2008,"Content Creation, Digital Marketing, Social Media, Editorial",Privately Held,"10-11 Archer St, Soho, London, London, England, W1D 7AZ, GB",Marketing & Advertising
https://www.linkedin.com/company/76646919,https://www.linkedin.com/company/acquastonedesign,https://www.acquastone.com,Acquastone,03303800673,11- 50 employees,5 on LinkedIn,"ğŸ†Winner of 'Home & Garden Awards 2019' (Best Bathroom & Ceramic Tiling Company)
ğŸ†Winner of 'Best of Houzz Service 2020 & 2021'
ğŸ…Shortlisted for 'Michelmores Best Residential Project of the Year'

ğŸ“° Featured in Time & Leisure Magazine December 2019 
ğŸ“ºFeatured on Channel 4, selected by the interior design team to specify and deliver a beautiful Hague Blue Shaker Kitchen & Bathroom for George Clarkes 'Old House New Home' Show

At Acquastone we are the UK's leading supplier of Architectural tiles, Bathrooms, Kitchens, Interior & Exteriors for both residential and commercial projects. We supply nationwide and provide 2D and 3D Cad drawings as well as in depth conferencing to help our clients visualise their final design. Our clients include developers, architects, interior designers as well as residential end users. Contact our team or visit our website and we will be delighted to offer a free design service and specify our services/products for your inspirations and projects.

ğŸŒ The passion for delivering against our clients' projects is driven by the social project work we do. We work with partners to fund water projects in some of the worlds most destitute locations, providing water pumps that will facilitate clean drinking water in communities where it is needed most.",Centre Court Shopping Centre,Unit 226,London,Wimbledon,SW19 8YE,GB,"London, Wimbledon",2017,"Design, Interior & Exterior, Bathrooms & Kitchens, Architectural Tiles",Privately Held,"Centre Court Shopping Centre, Unit 226, London, Wimbledon, SW19 8YE, GB",Design
https://www.linkedin.com/company/1672007,https://www.linkedin.com/company/acquis-insurance-management,http://www.acquisinsurance.com,Acquis,+44 (0)1633 811920,51- 200 employees,72 on LinkedIn,"Acquis is an independent insurance broker and administrator providing specialist insurance solutions to the finance and leasing industry.

Acquis structures individual insurance products to meet its clients'â€‹ key business requirements, whether they are a multinational bank-owned funder, a manufacturer captive finance company or an independent.   Acquis customises marketing methods, underwriting options and programme structures to support its clients'â€‹ success. 

Acquis Insurance Management Ltd is authorised and regulated by the Financial Conduct Authority.","Integra House, Vaughan Court",,Newport,Gwent,NP10 8BD,GB,"Newport, Gwent",,"Insurance Management, Pan-European Insurance Solutions, Leased Equipment Insurance",Privately Held,"Integra House, Vaughan Court, Newport, Gwent, NP10 8BD, GB",Insurance
https://www.linkedin.com/company/22028761,https://www.linkedin.com/company/acrinax-ltd,http://www.acrinax.com,acrinax,0330 380 1011,11- 50 employees,14 on LinkedIn,"acrinax believe in delivering awesome customer experience solutions - but how?

ğŸ¯ Focus
objections and challenges change our direction, they don't stop progress

ğŸ Integrity
we do the right thing, by our team and our customers

â­ï¸ Awesomeness
we go beyond in effort, ownership and innovation

ğŸ† Quality
as my Nan says ""do it right first time""

ğŸ’™ Team First
creating a great environment for our team to work and grow

ğŸ’› Customer obsessed
working relentlessly to deliver a great service to our customers",10 Bloomsbury Way,,London,England,WC1A 2,GB,"London, England",2015,"CX, Telephony, Genesys, ITSM, Consultancy, Verint, Speech Analytics, Gamma, Social engagement, Omni Channel, purecloud, Cloud, awesome, customer, omni channel, WFO",Privately Held,"10 Bloomsbury Way, London, England, WC1A 2, GB",Information Technology & Services
https://www.linkedin.com/company/1833885,https://www.linkedin.com/company/actegy-health-ltd,http://www.revitive.com,Actegy Health,,51- 200 employees,71 on LinkedIn,"Powered by science inspired by you...

Here at Actegy, we believe that everybody deserves to feel positive about their health. We design, develop and market drug-free healthcare technologies which improve the health, well-being and the lives of the people who use them.   Marketed under the 'REVITIVE'â€‹ brand name, we intelligently harnesses the power of science to bring you innovative and effective home healthcare products, which are proven to work.

A proven reputation with leading retailers around the world, Actegy has achieved huge growth internationally since first launching in 2003.  With the Global HQ based in the UK, the business has received a number of  accolades including being ranked for three years running as one of the UK's fastest growing companies.  This growth has been driven by successful omni-channel sales in the USA, Canada, Australia, UK and Europe; predominantly in retail pharmacy, consumer electronics retailers, Amazon, and direct-to-consumer DRTV.  The US corporate office is located in Indianapolis, Indiana.

Our Vision:
Everyone with an age, lifestyle or disease related symptom in the developed world uses our drug-free REVITIVE products to improve their everyday health.

Our Mission: 
We deliver a lasting positive impact on everyday living by building superior consumer healthcare products that are both innovative and therapeutic.

Our Values
â€¢ Innovative
â€¢ Relentless
â€¢ Agile
â€¢ Integrity",Western Road,1 West Point,Bracknell,Berkshire,RG12 1HJ,GB,"Bracknell, Berkshire",2003,"medical devices, pharmacy, retail, multi-channel, direct response, respiratory health, vascular health, Revitive, Aerosure, drtv, consumer health, consumer medical, consumer products, direct to consumer, connected health, consumer goods, broadcast media",Privately Held,"Western Road, 1 West Point, Bracknell, Berkshire, RG12 1HJ, GB",Consumer Goods
https://www.linkedin.com/company/139796,https://www.linkedin.com/company/activeops,https://www.activeops.com,ActiveOps,,51- 200 employees,209 on LinkedIn,"ActiveOps, A Management Process Automation Software Company 

Operations management is getting harder. Technological advancements, unpredictable markets, and evolving customer expectations are putting pressure on managers to make certainty out of confusion, respond faster to changes, and maximize employee productivity â€“ without overworking them.

Thatâ€™s the challenge that ActiveOps helps organizations solve â€“ turning operational management from a guessing game into a source of efficiency and value. We are the market leaders in management process automation: our smart software gives managers the information and insight to make decisions that deliver the levels of operational performance which match their companyâ€™s ambition. 

ActiveOps is able to deliver this because weâ€™ve focused on the challenges of managing complex operations in labor- and knowledge-intensive industries such as banking, insurance and related service outsourcing providers with AI and Machine Learning technologies. That experience led us to develop Active Operations Management, our operational management methodology that underpins our approach to management process automation. It means our solutions can provide advanced decision support, forecasting, planning and comprehensive situational awareness at a global and local level. Our customers see farther, know more and move faster. 

Our platform â€“ includingâ€¯Workware+, the Active Operations Management (AOM)â€¯Method and OpsIndex â€“ provides real-time employee productivity monitoring and workforce management technologies for a 360Â°â€¯view of your operations â€“ both digital and human. ActiveOps can transform your operational effectiveness and embed improvements in your processes to manage whatever challenges lie ahead. By providing managers access to data and insight at the right time, in the right context, enables them to transform productivity, secure employee wellbeing and create a platform for confident, constant transformation and market leadership.",One Valpy,20 Valpy Street,Reading,Berkshire,RG1 1AR,GB,"Reading, Berkshire",2005,"Capacity Planning, Operations management training, Back Office Workforce Optimization, Operations Management, operational excellence, Workforce Management, digital transformation, Digital Operations, Performance Management, capacity management, workforce optimization, digital operations, Employee Productivity Monitoring, Innovation, Digital Operations Management",Public Company,"One Valpy, 20 Valpy Street, Reading, Berkshire, RG1 1AR, GB",Information Technology & Services
https://www.linkedin.com/company/1312063,https://www.linkedin.com/company/acumen-commercial-insights-ltd,http://www.acumenci.com,Acumen - Smart Revenue Management,,11- 50 employees,50 on LinkedIn,"We are a revenue management consultancy, helping leading FMCG companies make smarter, more profitable decisions through a combination of pricing, promotions, and mix management.

Whilst our expertise is within change management, optimising our clients'â€‹ revenue management processes; we are also a specialist software provider of pricing and promotions solutions.

Acumen Invest is a cross-functional TPM/O solution that makes you more profitable by transforming the way you plan, review, and optimise your promotions so you can do more of the good, and less of the bad. Acumen Radar gives you visibility of your pricing and investments today, and helps you plan and optimise for the future.",25 Wilton Road,,Victoria,England,SW1V 1LW,GB,"Victoria, England",2006,"Revenue Management in Consumer Goods, Trade Promotion Management, International Customer Management, Trade Promotion Optimization, Pricing and Investment Design, consulting , Revenue management consulting, analytics applications, international revenue management, risk simulation, in-depth analysis ",Privately Held,"25 Wilton Road, Victoria, England, SW1V 1LW, GB",Computer Software
https://www.linkedin.com/company/10193052,https://www.linkedin.com/company/actcharity,http://www.act4addenbrookes.org.uk,Addenbrooke's Charitable Trust (ACT),,11- 50 employees,108 on LinkedIn,"Addenbrooke's Charitable Trust (ACT) is the only registered charity dedicated to supporting innovation in patient care across Cambridge University Hospitals NHS Foundation Trust, which runs Addenbrookeâ€™s and the Rosie hospitals. 

The hospitals have earned the reputation of being among the world's best academic healthcare organisations, and ACT's aim is to support those achievements by raising funds for cutting edge technology, additional specialist staff, environmental enhancements and extra comforts for patients that make all the difference.  We also provide seed funding for early stage research projects, supporting the hospitals'â€‹ clinical academics keen to embark on a research career. This funding then often leverages more ambitious research funding opportunities, and as such can be an essential component in identifying global cures and advances in treatment.

With the help of our supporters, ACT has been able to fund a broad range of projects and services across the hospitals, including raising funds to transform cancer and childrenâ€™s services, further our research programme, facilitate innovative new projects and provide small comforts that can mean so much to patients every day.

Registered charity number: 1170103","Box 126, Addenbrooke's Hospital",Hills Road,Cambridge,Cambridgeshire,CB2 0QQ,GB,"Cambridge, Cambridgeshire",2005,,Nonprofit,"Box 126, Addenbrooke's Hospital, Hills Road, Cambridge, Cambridgeshire, CB2 0QQ, GB",Fundraising
https://www.linkedin.com/company/667755,https://www.linkedin.com/company/adf-milking-limited,http://www.adfmilking.com,ADF Milking Ltd,+44 (0)1243 814030,11- 50 employees,33 on LinkedIn,"The Automatic Dipping and Flushing system is a multi-award winning product that is helping farmers improve the health of their herds. It saves time and increases the efficiency of the milking parlour.

Traditional post-milking routines are not only time consuming but disruptive to milking and can be prone to human error.

By automating the dip and flush process ADF's simple and robust system automatically applies 'dip'â€‹ (emollients and sanitiser) to cows'â€‹ teats immediately after milking. The teat cups are then automatically rinsed and disinfected ready for the next cow.

Improved cow health saves money, increases milk yield and saves time.",1 Camelia Court,Shellbridge Road,Slindon,West Sussex,BN18 0LT,GB,"Slindon, West Sussex",2004,,Privately Held,"1 Camelia Court, Shellbridge Road, Slindon, West Sussex, BN18 0LT, GB",Dairy
https://www.linkedin.com/company/139300,https://www.linkedin.com/company/adlib,http://www.adlib-recruitment.co.uk,ADLIB Recruitment,0117 926 9530,11- 50 employees,75 on LinkedIn,"We are an employee-owned Recruitment Agency operating within the Technology, Data, Engineering, Science, Sustainability, eCommerce, Marketing and Design sectors.

Proudly B Corp certified. Our mission and impact go far beyond recruitment.

We connect ambitious organisations with equally ambitious talent. We immerse ourselves in the worlds we operate in. A trusted partner, supporting growth and success at pace since 2001.

Our highly respected and experienced team is regularly called on to share their unrivalled knowledge and bring the finest talent together with ambitious start-ups, thriving SMEs, agencies of all shapes and sizes, challenger brands and global organisations.

www.adlib-recruitment.co.uk

purpose driven | knowledgeable | honest | progressive | dedicated

ğŸŒ  www.adlib-recruitment.co.uk
âœ‰ï¸ hello@adlib-recruitment.co.uk
ğŸ“ 0117 926 9530
@adlibrecruit",3rd Floor,St Bartholomews House,Bristol,Bristol,BS1 2NH,GB,"Bristol, Bristol",2000,"Marketing & Communications Recruitment, Creative Recruitment, Digital Technology Recruitment, Digital Recruitment, Digital Marketing Recruitment, Search & Selection, Talent Finding, Salary & Benchmarking, Market Mapping, eCommerce Recruitment, Employee Engagement, UX & UI Recruitment, Digital Transformation & Change Recruitment, Data Recruitment, Agency Recruitment, Digital Change & Transformation Recruitment, Insight, Data & Analytics Recruitment, Marketing & Agency Recruitment, Technology Recruitment, eCommerce Recruitment, Project Management Recruitment, Product Management Recruitment, UX Recruitment, Science Recruitment, Engineering Recruitment, Pharmaceuticals Recruitment, Design Recruitment, Sustainability Recruitment",Privately Held,"3rd Floor, St Bartholomews House, Bristol, Bristol, BS1 2NH, GB",Staffing & Recruiting
https://www.linkedin.com/company/3854668,https://www.linkedin.com/company/adsoxford,https://www.adsoxford.co.uk,ads creative solutions,01993 885122,11- 50 employees,10 on LinkedIn,"Creative, advertising & digital agency in Oxford. Helping clients tell their story for over 30 years. 

Our in-house team of skilled marketing specialists take a methodical approach to understanding your requirements and finding the best digital, design and marketing solutions. Whether you need support to develop an overarching marketing strategy and programme of campaigns or simply help with a one-off project, all of our work is underpinned by creative thinking, marketing know-how and attention to detail.

We pride ourselves on being friendly and approachable and can be relied upon to deliver marketing campaigns on time and within budget. We have been retained by numerous clients for many years, building mutual trust and working collaboratively, as if we are part of their team.

Equally, feedback from new clients often centres on how quickly we immerse ourselves in a business to truly understand issues and set goals, present new ideas, plan persuasive campaigns and deliver a real return on investment.

ğŸ’¬  WhatsApp us on 01993 885122",Blenheim Palace Sawmills,Combe,Combe,Oxfordshire,OX29 8ET,GB,"Combe, Oxfordshire",1988,"Graphic Design, Exhibition & POS, Marketing Material, Branding, Web Development, E-commerce Websites, Web Hosting, Digital Marketing, Email Marketing, Video Production, Social Media Management, Pay Per Click, Marketing Campaigns, Media Buying, Event Management, PR & Copywriting",Privately Held,"Blenheim Palace Sawmills, Combe, Combe, Oxfordshire, OX29 8ET, GB",Marketing & Advertising
https://www.linkedin.com/company/2644566,https://www.linkedin.com/company/aduna-ltd,http://www.aduna.com,Aduna Superfoods,02071004329,11- 50 employees,13 on LinkedIn,"Aduna is an Africa-inspired health food brand and social business. Our mission is to bring you the natural vitality of Africaâ€™s superfoods, while creating sustainable livelihoods for rural households.

OUR PRODUCTS
Our super-delicious and naturally nutritious superfood powders, grains and teas are the perfect-way to super-charge your day.

OUR IMPACT
To date, we have created sustainable incomes for 2,000 baobab producers in Northern Ghana and hundreds more producers across the continent - and we are only at the beginning of our journey. Every purchase makes a real difference.

OUR BRAND
Aduna means â€˜lifeâ€™ or â€˜worldâ€™ in Wolof, the local language of Senegal and The Gambia where our co-Founders discovered their passion for Africa. Our logo is borrowed from a Ghanaian Adinkra symbol called 'Owia Kokroko'â€‹, which stands for vitality, renewal, and the power of the sun. Our brand and products breathe the vibrancy of Africa into the daily lives of people all over the world creating a virtuous circle of positive impact.

CONNECT WITH US
Join The Aduna Feel Good Tribe! For our latest news, exclusive offers, wellness advice and recipes, sign up to our newsletter via our website www.aduna.com or follow us on social media:

https://www.facebook.com/adunaworld
https://www.twitter.com/adunaworld
https://www.instagram.com/adunaworld/
https://uk.pinterest.com/adunaworld/","Aduna Ltd, 2.19 Chester House","Kennington Park, 1-3 Brixton Road",London,Greater London,SW96DE,GB,"London, Greater London",2011,"Health, Food, Wellness, Beauty, Social business, Retail, Purpose-Driven, Africa, Ethical, Tea, Superfoods, Social impact",Privately Held,"Aduna Ltd, 2.19 Chester House, Kennington Park, 1-3 Brixton Road, London, Greater London, SW96DE, GB",Food & Beverages
https://www.linkedin.com/company/87596,https://www.linkedin.com/company/advorto,http://www.advorto.com,Advorto,,11- 50 employees,11 on LinkedIn,"Advorto was founded in 1998 and is now one of Europe's leading providers of talent recruitment systems which are available globally to help organisations improve their human resourcing.

Advorto has delivered over 200 talent recruitment solutions for some of the World's largest organisations including Lloyds Banking Group, Microsoft and Virgin.

We build innovative recruitment systems and our business is based on these four values:

- Create ""best of breed""â€‹ recruitment software that works simply.
- Adapt our applications to suit our clients.
- Price honestly and clearly.
- Give service and support as we would like to receive it.

All Advorto products are delivered online as SaaS solutions through the ""cloud""â€‹ and are compatible with all popular HRIS and ERP systems.

Our international network of partners and consultants bring specialised industry focus and local knowledge to implement and support our systems in their markets.",14 Greville Street,,London,,EC1N 8SB,GB,"London, None",1998,"Specialist eRecruitment Systems Provider, Corporate Applicant Tracking System Provider, Applicant Tracking, Applicant Tracking Software, Applicant Tracking System, e-Recruitment, Online Recruitment, Recruitment Software, Recruitment Solutions",Privately Held,"14 Greville Street, London, EC1N 8SB, GB",Information Technology & Services
https://www.linkedin.com/company/18270192,https://www.linkedin.com/company/adylic,http://www.adylic.com,Adylic,,51- 200 employees,145 on LinkedIn,"Adylic is OMG's Dynamic Creative Optimisation (DCO) specialist, enabling brands to deliver audience-first, data-driven creative, personalised to users across Display, Video and Social channels.

Adylic uses data triggers, such as audience, demographic, behavioural and contextual signals, to inform and deliver hyper-personalised ads, in real-time and optimised to a brandâ€™s KPIs. 

Through individually crafted client learning agendas, Adylic drives creative insight into the content creation and audience planning process â€“ something which has been absent in digital paid media for years. In addition to DCO solutions, Adylic provides programmatic rich media production capabilities to brands, creative and planning teams.","Bankside 2, 90-100 Southwark Street",,London,,SE1 0SW,GB,"London, None",2016,,Public Company,"Bankside 2, 90-100 Southwark Street, London, SE1 0SW, GB",Marketing & Advertising
https://www.linkedin.com/company/18450661,https://www.linkedin.com/company/campo-di-serie-a,,æ„ç”²å¤§æœ¬ç‡Ÿ Il Campo di Serie A,,2- 10 employees,1 on LinkedIn,"Ciao, we are æ„ç”²å¤§æœ¬ç‡Ÿ Il Campo di Serie A, an online media platform aims to promote Italian football and culture in Hong Kong. 

Cause: 
Recently, the quality of Serie A is growing. However, there are few Chinese media focusing on Italian football. On the other hand, thanks to the Golden Era of Serie A, the â€˜calcioâ€™ fan base in Hong Kong is always strong and the fans were longing for a high-quality platform for them to express their love of Italian football. Therefore, we decided to create â€™æ„ç”²å¤§æœ¬ç‡Ÿ Il Campo di Serie Aâ€™, an online platform aims to establish an â€˜Italian footballâ€™ community in Hong Kong. 

Rebranding from æ„ç”²è·¯é‚Šç¤¾ HK Serie A WFC
Previously, we were under the name â€˜æ„ç”²è·¯é‚Šç¤¾ HK Serie A WFCâ€™. However, since the support and enthusiasm in Hong Kong are growing rapidly, the nature of Serie A WFC, a media page, is not enough for the community in Hong Kong.Therefore, we decided to rebrand our media platform and provide more diverse contents to our audience. Thanks to the effort from our team and the support of local media, we have established networks among Hong Kong, Macau, England and Italy. 

Our aims:
â€˜Campoâ€™ in English means â€˜fieldâ€™ or â€˜campâ€™. At the beginning of Italian football, before the appearance of â€˜stadio/stadiumâ€™, â€˜campoâ€™ is a public space where football was played while different people met up to share their interest and passion. We hope to continue this tradition and create an open space for fans to communicate. 
We want to present not merely football, but also the history & culture behind Italy. Since the Italian football fans in Hong Kong admire Italy greatly, we hope that we could establish a friendship between Italy and Hong Kong. Meanwhile, we also hope to promote the Italian community in Hong Kong to our Chinese audience. 

",Other,,Hong Kong,Hong Kong,N/A,HK,"Hong Kong, Hong Kong",2017,,Nonprofit,"Other, Hong Kong, Hong Kong, N/A, HK",Sports
https://www.linkedin.com/company/634801,https://www.linkedin.com/company/afc-wimbledon,http://www.afcwimbledon.co.uk,AFC Wimbledon,,51- 200 employees,178 on LinkedIn,"AFC Wimbledon is a professional English football club affiliated to both the London and Surrey Football Associations playing in the English Football League 1 

AFC Wimbledon is a continuation of the former Wimbledon Football Club, which no longer exists after the franchising of its league place to Milton Keynes. The club was formed by fans who refused to follow the Midlands based club and decided to form their own. Since its re-birth in 2002 AFC Wimbledon has been promoted six times and won three league championships, three promotion play-off finals and two cups.

AFC Wimbledon is owned by the fans through a mutual member industrial and provident society known as 'The Dons Trust'â€‹. Control is exercised by the Dons Trust through its majority ownership of shares in AFCW PLC. 

AFCW PLC is a limited company formed in 2003 to raise funds to purchase Kingsmeadow Stadium where the club was based from 2002-2019. 

Largely down to the fundraising feats and drive of the Dons fans we recently moved into our newly built stadium at Plough Lane, back home in Wimbledon. ",Plough Lane,,Wimbledon,London,SW17 0BW,GB,"Wimbledon, London",1889,"Football, Sports, community, football business, hospitality",Public Company,"Plough Lane, Wimbledon, London, SW17 0BW, GB",Sports
https://www.linkedin.com/company/2683052,https://www.linkedin.com/company/agency-express-limited,https://linktr.ee/AgencyExpress,Agency Express,,51- 200 employees,37 on LinkedIn,"Agency Express is the UK's largest provider of estate agency board services. Our nationwide network of estate agency board operators erect and maintains over 60% of all estate agency boards in the UK.

Our background

Agency Express was set up in 1998 to offer a nationwide professional board service to both corporate and independent estate agencies. Traditionally, boards had been erected by agencies'â€‹ own staff or by local sign companies offering a limited standard of service. As an ex-estate agent, Stephen Watson, the company's founder and Managing Director, saw the need for a reliable nationwide sign service. 

Our comprehensive network

With sustained growth, our company now has over 114 established centres covering the UK from Scotland to Kent and Cornwall, a growing network in Ireland and overseas, and is the recognised leader in the board management field. Our operators benefit from comprehensive training to ensure consistently high standards, and our fleet of smart liveried vans complements the professional image of estate agents.

Our dedicated team

Based at our international head office near Norwich, we have a large dedicated team covering all aspects of the business, from training to design and accounts. It is our centralised accounts department that enables clients to make one single payment for all their board work nationwide - a significant benefit for corporate and any multi-branch agency.",Rectory Road,East Carleton,Norwich,Norfolk,NR14 8HT,GB,"Norwich, Norfolk",1998,"Franchise Opportunities, For Sale Board Management & Maintenance",Privately Held,"Rectory Road, East Carleton, Norwich, Norfolk, NR14 8HT, GB",Real Estate
https://www.linkedin.com/company/19071134,https://www.linkedin.com/company/agenda-adapt,http://www.agendaadapt.co.uk,Agenda Adapt,07518093007,11- 50 employees,4 on LinkedIn,"ğŸ¤ Official Certified Amazon Partner

Agenda Adapt provides commerce consultancy, retail readiness and Amazon advertising activation. As an Amazon certified partner, Agenda Adapt aims to simplify the Amazon ecosystem, work as an extension of your team to deliver a trusted managed service.",,,Manchester,Greater Manchester,M4 1DW,GB,"Manchester, Greater Manchester",2018,"Amazon Consultancy, Amazon PPC, Amazon Advertising, Amazon, Keyword Research, PPC Strategy, Display Strategy, Amazon Marketing",Public Company,"Manchester, Greater Manchester, M4 1DW, GB",Marketing & Advertising
https://www.linkedin.com/company/67260203,https://www.linkedin.com/company/agicap-deutschland,https://agicap.com/de/,Agicap Deutschland,+49 30 30808 022,51- 200 employees,75 on LinkedIn,"Mit Agicap kannst Du einfach und effizient Deine LiquiditÃ¤t verfolgen und planen.

âœ“ AGICAP SOFTWARE 
Agicap ist eine intuitive SaaS-LÃ¶sung, mit der sich der Zeitaufwand und die KomplexitÃ¤t der LiquiditÃ¤tsplanung vergessen lÃ¤sst. 

CEOs und CFOs ...
... Gewinnen einen besseren Ãœberblick mit zuverlÃ¤ssigen LiquiditÃ¤tsprognosen
... Ersetzen ihre Excel-Tabelle durch automatisierte LiquiditÃ¤tskontrolle in Echtzeit
... Reduzieren ihre Kosten
... Erleichtern sich den Zugang zu Finanzierungen der strukturierte Reporte


Jetzt Demo anfordern: https://agicap.com/de",Lobeckstrasse 36-40,,Berlin,,10969,DE,"Berlin, None",2016,"liquiditÃ¤tsplanung, liquiditÃ¤tsmanagement, cashflow management, SaaS",Privately Held,"Lobeckstrasse 36-40, Berlin, 10969, DE",Financial Services
https://www.linkedin.com/company/2817342,https://www.linkedin.com/school/aldwickbury-school/,http://www.aldwickbury.org.uk,Aldwickbury School,01582 713022,51- 200 employees,45 on LinkedIn,"Boysâ€™ education is wonderfully complicated. We are challenged to provide a safe, fun and successful experience for children who have so many other distractions as our world continues to change at extraordinary speed. 

Aldwickbury is a modern boysâ€™ preparatory school which fosters traditional values that are relevant to the boys that we educate today. We focus clearly on boysâ€™ needs and look to help them take advantage of opportunities in academic, cultural and sporting pursuits. Striving for excellence, at whatever level, is important at Aldwickbury; encouraging boys to make the most of their abilities is at the heart of what we want to achieve.",Wheathamsptead Road,,HARPENDEN,Hertfordshire,AL5 1AD,GB,"HARPENDEN, Hertfordshire",1948,"boys'â€‹ education, prep school, school",Educational Institution,"Wheathamsptead Road, HARPENDEN, Hertfordshire, AL5 1AD, GB",Primary/Secondary Education
https://www.linkedin.com/company/12060108,https://www.linkedin.com/company/alexony,http://www.alexonymarketing.com,Alexony,,11- 50 employees,9 on LinkedIn,"""Innovation is the product of creative thinking, and it is in this domain that we excel.""â€‹

We have a very diverse group of people in our business who often think differently about things. Our culture celebrates this at every opportunity and we recognise that this is what contributes to the idea process. Everyone has an equal voice.

We operate with a linear organisational structure and we try to avoid too many formal procedures in favour of flexibility and choice. Working from home some days or working in the park others is acceptable normal practice for us. It matters little when the undercurrent of our business is focused on exceptional results.

The management team at Alexony is focused on recognising individual and team achievements and doing what they can to help others succeed to the best of their ability. If you think this culture and environment may suit you, we are always looking for talented, creative people, so drop us a line or just stop in for coffee!

At Alexony, we specialise in multidisciplinary design for print and screen, web design, development, content strategy and event management. 

In parallel, our Alexony Maritime division centres its offering around management services, event management and the administration of a number of special projects and initiatives for the maritime industry.  Over a period of more than 20 years the company has developed a unique understanding of the maritime sector and the players within it. As an organisation, we work with a leading trade association in the supply chain arena and have a track record of helping them achieve growth and success in their development strategy and programme of activities.

Contact information:
Email: info@alexony.co.uk
Telephone: +44 (0) 12067 98907",East Street,,Colchester,,CO1 2TX,GB,"Colchester, None",1995,"Multidisciplinary Design, Print & Screen, Web Design, Web Development, Content Strategy, Event Management, Project Management",Privately Held,"East Street, Colchester, CO1 2TX, GB",Marketing & Advertising
https://www.linkedin.com/company/27194642,https://www.linkedin.com/company/alldaycruise,https://www.alldaycruise.net,All Day Cruise,,11- 50 employees,4 on LinkedIn,"Established in 2016 and with over 5 years sailing experience, we at All Day Cruise pride ourselves on our professionalism and dedication to the passengers. 

As a young and enthusiastic team, we at All Day Cruise are firmly committed to promoting the outstanding natural beauty of Greece and its islands to the world, and in enshrining Hellenic hospitality as a keystone of our services.

The hot wind pulls and pushes our ships toward great adventures around the Saronic Sea and its splendid islands. If you are looking for an intimate cruise holiday, then we would recommend you discover the joys of small ship sailing. Our boats, â€œCalypos A and Calypos Bâ€ , hold 24, respectively 49 passengers total. Sailing aboard our ships you will have delectable Mediterranean meals, open bar, water sports, and music. 

Committed to creating value for money, we are constantly trying to make memorable trips and experiences by constantly delivering the best services that we can.","â€‹24 Holborn Viaduct,",,LONDON,London,â€‹EC1A 2BN ,GB,"LONDON, London",2016,"Cruise , Tourism, Vacation, Travel, Leisure",Partnership,"â€‹24 Holborn Viaduct,, LONDON, London, â€‹EC1A 2BN , GB","Leisure, Travel & Tourism"
https://www.linkedin.com/company/11123346,https://www.linkedin.com/company/allplus,https://www.allplusmanagement.com/,ALL+ (Commercial Real Estate Management),,11- 50 employees,11 on LinkedIn,"ALL+ specialises in large scale mixed use commercial and residential developments across the UK with a proven track record provided by a highly experienced team.
 
ALL+ delivers high quality total facilities management, property management and customer experience to match the global vision of their clients'â€‹ properties and estates. Carefully positioned strategic partnerships add the further consultancy services of place making and the full range of asset management services.
 
We believe our experience and expertise associated with the strategic management of large scale commercial buildings, mixed use estates and public realm is unique. We provide a dynamic service, adding value to any asset and allowing occupiers to flourish, creating a sense of place and a destination for any community.

With offices in London and Manchester the national team are ready to discuss your property requirements.",ABC Building,402,Manchester ,,M3 4AE,GB,"Manchester , None",2017,,Privately Held,"ABC Building, 402, Manchester , M3 4AE, GB",Commercial Real Estate
https://www.linkedin.com/company/837644,https://www.linkedin.com/company/alliance11,http://www.alliance11.com,Alliance Advertising & Marketing Pvt. Ltd.,+91-11-40547270,51- 200 employees,61 on LinkedIn,"Alliance is a complete Media ï»¿Solution ï»¿Agency offering full service across Planning / Creative / Buying / Implementation to its clients, building robust resource capacity in-house. 

We passionately believe that communication has the power to transform our client's business.  

We are thinkers and doers, continually seeking and usually finding the perfect connection between their products and potential customers.","D8/1, First Floor, Okhla Industrial Area, Phase II,",,New Delhi,Delhi,110020,IN,"New Delhi, Delhi",1993,"Brand Strategy / Market Planning, Media Planning, Media Buying & Implementation, Digital Planning, Sports Planning, Creative & Production",Privately Held,"D8/1, First Floor, Okhla Industrial Area, Phase II,, New Delhi, Delhi, 110020, IN",Marketing & Advertising
https://www.linkedin.com/company/1513619,https://www.linkedin.com/company/allsop-software,https://allsop.software/,Allsop - Intelligent Software Solutions,028 9018 3250,11- 50 employees,22 on LinkedIn,"Allsop provides intelligent software solutions with modern Cloud and Mobile technology to a wide range of businesses. 
Our main goal is to ""make working lives better with intelligent software solutions.""â€‹ 
We achieve this by working closely with our clients to understand their businesses from the ground up. Weâ€™re about building on the assets that your business already has in order to minimise the process of change, whilst maximising its impact. 

Our software solutions are built and designed specifically to face individual challenges. Theyâ€™re about transforming the flow of information and how knowledge is shared, to create improvements for both your staff and customers alike. Weâ€™re focused on providing the right solution and getting customers up and running in the fastest time possible, delivering immediate impact and benefit. 
",Scottish Provident Building,7 Donegall Square West,Belfast,Antrim ,BT1 6JH,GB,"Belfast, Antrim ",1996,"Software Development, Database Design, Systems Integration, Mobile App Development, Cloud Computing, Web Development, Business Software, Mobile Workforce Management, Workflow Automation, Automation, Business Process Automation ",Privately Held,"Scottish Provident Building, 7 Donegall Square West, Belfast, Antrim , BT1 6JH, GB",Information Technology & Services
https://www.linkedin.com/company/7797084,https://www.linkedin.com/company/alpha-kilo,http://www.alphakilocreative.com,Alpha Kilo,,11- 50 employees,7 on LinkedIn,"Alpha Kilo is a cultural communications agency and strategic consultancy that works internationally across the art, design, luxury, travel, and technology sectors. We work with creatives, visionaries, entrepreneurs, and influencers who are reshaping the world around them. Our clients are brave thinkers, bold inventors, and social mavericks.

Striking a balance between the expertise of local specialists and a global perspective, we have a reputation for presenting intelligent, unexpected solutions that are tailored to our clients'â€‹ needs. For each project, we build a uniquely qualified team to maximise impact and create a truly bespoke experience.

We start with robust ideas that are powerful enough as to provoke a chain reaction. From there, we implement clear, insightful, and progressive strategies across a global network of media, brand partners, influencers, and thought leaders.

Working intuitively with company founders, executives, and entrepreneurs, as well as internal product, policy, marketing, and communications teams, we engage deeply to understand the clientâ€™s needs, challenges, perceptions, and goals. From this place of insight, we draw up clear action plans to achieve specific goals, leveraging our full range of channels to help our clients build community and meaningful advocacy.

We are connectors, storytellers, strategists and publicists.",11 Savile Row,Second Floor,London,England,W1S 3PG,GB,"London, England",2015,"Public Relations, Creative Strategy, Event Management, Design Consultancy",Privately Held,"11 Savile Row, Second Floor, London, England, W1S 3PG, GB",Public Relations & Communications
https://www.linkedin.com/company/28864260,https://www.linkedin.com/company/alphastream-io,http://alphastream.io,AlphaStream.io,+44 (0)330 313 1000,11- 50 employees,25 on LinkedIn,"Personalization is everywhere. Data-driven brands like Facebook and Amazon prove that consumers are ready to welcome tailored experiences able to meet their ever-growing expectations. Itâ€™s time for financial services to join the other industries and drive growth by creating valuable connections between data and end-users. 
 
AlphaStreamâ€¯unlocks hyper-personalization for the financial services sector by unifying content, behavior and financial market data to help you deliver highly relevant experiences to your customers in real time. 
 
Designed to work around your existing infrastructure and data platforms, AlphaStreamâ€™s technology provides you with a simplified and quick to deploy low-code solution that will accelerate integration with most major SaaS platforms and all majorâ€¯contentâ€¯providers. 

By empowering consumers to access a fully tailored experience, Alphastream brings you closer to the next generations of investors and traders meeting their manifest and latent needs. 
 
With a background in trading and investing, AlphaStreamâ€™s team understands the complexity and the volumes of data needed to activate hyper-personalization, and opens a new path of opportunities, unreachable with any traditional Martech offering. ",No 1 Poultry,,London,England,EC2R 8EJ,GB,"London, England",2018,"Artificial Intelligence, Cloud Technology, Alpha Data, Personalization, Customer Experience, Data, FinTech, Financial Services",Privately Held,"No 1 Poultry, London, England, EC2R 8EJ, GB",Computer Software
https://www.linkedin.com/company/3806641,https://www.linkedin.com/company/altaterra-vkr-group,http://altaterra.eu,Altaterra,,51- 200 employees,100 on LinkedIn,"Altaterra manufactures and delivers roof windows and is also a market leader in private label product offers, addressing the middle and low segments. We currently have over 35 private label brands including Dakea & RoofLITE+. 

Our mission is to deliver affordable solutions that improve peopleâ€™s lives by increasing the amount of daylight and fresh air in their homes and offices. We also believe in delivering total customer satisfaction as well as being kind to the environment and adopting sustainable practices wherever possible. We operate in line with our Chain of Custody FSC certification, and the raw materials we use are sustainably sourced and processed.

We supply both the DIY and professional construction sectors as well as having a growing online market. With offices centrally based in Europe in both Poland & Hungary, our products are sold across 29 European markets.

Altaterra was founded in 2001 and is part of VKR Holding, a large group of companies that includes VELUXÂ®, our sister company.  VKR has over 80 yearsâ€™ experience in the roof window sector and was founded by Villum Kann Rasmussen in 1965. VKR is still owned by his family. In 1991, VKR established an Employee Foundation to support employees and their families worldwide. Since then, it has made 7,500 donations and more than 5,200 employees have received support, as well as supporting more than 2,200 local projects.  ",Malom kÃ¶z 1.,,FertÅ‘d,,9431,HU,"FertÅ‘d, None",2001,"Roof windows, Skylights, Roof window accessories , Roof window blinds",Privately Held,"Malom kÃ¶z 1., FertÅ‘d, 9431, HU",Building Materials
https://www.linkedin.com/company/2289417,https://www.linkedin.com/company/alternative-airlines,http://www.alternativeairlines.com,Alternative Airlines,,11- 50 employees,36 on LinkedIn,"2019 Sunday Times Fast Track Tech 100 #93

Search flights to anywhere and everywhere. 

Awarded for the Best Selling Travel Agent 2017, Alternative Airlines is an easy global flight search which specialises in finding a range of flights to off-the-beaten-track destinations on smaller airlines and internal flights between many countries. Full Customer Service support included!

""Can often book Central Asian airline tickets when others can't""â€‹ - Lonely Planet 

""Finds you the most weird and wonderful airlines out there""â€‹

Alternative Airlines accepts PayPal, PayPal Credit, Alipay, Fly Now Pay Later, Affirm and all major Credit and Debit cards to pay for flights. 160+ currencies available for payment.

Launched in 2007, Alternative Airlines is an IATA-bonded agency with a growing profile of over 600 airlines. The flight booking site provides flight options to both business and leisure travellers and also have special relationships with many airlines worldwide, including national and regional carriers and low-cost airlines.

www.alternativeairlines.com

To find out about news and deals, follow us on:
Facebook
Twitter: @alternativeair
Instagram: alternative.airlines ",9A Gatwick House,Peeks Brook Lane,Horley,Surrey,RH6 9ST,GB,"Horley, Surrey",2006,"Flights to Latin America, Flights to East Africa, Flights to Indochina, Flights to Russia, Secure Online Bookings, Easy Flight Search, Multi-Stop Flights, Group Bookings, Expert Support Centre, Cheap Flights, Feefo Trusted Merchant, Members Club, Airfares, Lesser-known airlines, Internal Flights, PayPal, Fly Now Pay Later, Alipay",Privately Held,"9A Gatwick House, Peeks Brook Lane, Horley, Surrey, RH6 9ST, GB",Airlines/Aviation
https://www.linkedin.com/company/10063648,https://www.linkedin.com/company/altiatech,http://www.altiatech.com,Altiatech,0330 332 5842,11- 50 employees,19 on LinkedIn,"Altiatech helps empower businesses through innovation and modularised business services. Partnering with leading vendors in the Gartner Magic Quadrant we listen to your requirements to design, build, deliver and support solutions to meet your business needs. Our solutions leverage Cloud, Unified Communications, Converged Infrastructure, Network Security, Workplace Transformation Services and Device Management. Our solutions are flexible and can be delivered on-premise, cloud or outsourced models.

Our people have helped customers fulfil their journey and start living their vision. They have helped customers'â€‹ improve their business agility, employee productivity and customer loyalty across all the different industries from start ups to international organisations.","Manor House Lane, Dachet",,London,England,SL3 9EG,GB,"London, England",2013,"Unified Communications, Managed Services, Cloud Services, End User Training, Outsourcing, Email Management, Storage Management, Strategic Consultancy, IT Consultancy, Office Relocation services, Application Development, Business Continuity and Disaster Recovery, Cyber Security",Privately Held,"Manor House Lane, Dachet, London, England, SL3 9EG, GB",Information Technology & Services
https://www.linkedin.com/company/9491190,https://www.linkedin.com/company/altcraft,https://www.altcraft.com,AltÑraft,,11- 50 employees,21 on LinkedIn,"AltÑraft Marketing Platform is a omni-channel marketing platform. It automates your customers journey. Personalizes all digital communications with customers in Email, SMS, Mobile Push, Web Push channels. Create analytical reports and tracking client activities in all channels and on your website. LTV, Cohort, Client Growth, Lead Conversions is only a small part of the analytics available in the platform.

AltÑraft Marketing Platform is distributed in two ways.
As a software license to deploy within your company's infrastructure (on-premise) for complete security of your data and independence from cloud restrictions.
As a private cloud deployed anywhere in the world for any of your tasks. In this case, for your convenience, the cloud is maintained by our experts.","19 Bld. 2, H3, Sovetskoy army",,Ryazan,,390037,RU,"Ryazan, None",2015,"Email marketing, Analytics, Email, Software for marketing, Multi-channel marketing platform, on premise marketing automation",Privately Held,"19 Bld. 2, H3, Sovetskoy army, Ryazan, 390037, RU",Information Technology & Services
https://www.linkedin.com/company/11842137,https://www.linkedin.com/company/alunauk,http://www.aluna.uk.com/,Aluna,0121 633 9987,51- 200 employees,33 on LinkedIn,"Aluna is a family-owned restaurant, with our sister restaurant Siamais just down the road from us in Brindley Place, Birmingham. 

At Aluna, we thrive on the adventurous & relish in the abnormal. The originators of ""the extraordinary""â€‹; the designers in ""the difference""â€‹. Our whole team, from our managers to our mixologists & our Chefs to our Waiting Team, are dedicated to advancing the art and practice of hospitality and the events world. We pride ourselves on providing a truly unique experience in giving everyone exactly what they desire. 

With a team of mixologist providing entertainment with every cocktail served, this truly is dinner and a show. Choose to sit at the bar, or head through to our restaurant where you can feast your eyes on our menu full of Pan-Asian dishes with a Western twist. 

Our style is chilled, so sit back and relax into the booth seats as you watch the day turn into night, and our casual yet high-quality venue turns into a vibrant environment. 

We encourage you to capture these moments, with our Angel wings and neon lighting setting the perfect backdrop for your selfies; or our theatrical, eye-catching cocktails delivered to your table. Either way, your time with us will give you long-lasting memories. 

But what remains most important to us is ensuring each guest leaves us wanting to come back the next day! ","28-130 The Mailbox Wharfside Street, ",,Birmingham ,West Midlands,B1 1RQ,GB,"Birmingham , West Midlands",,"Events, Hospitality, Cocktails, Pan Asian Cusine, Mixology",Privately Held,"28-130 The Mailbox Wharfside Street, , Birmingham , West Midlands, B1 1RQ, GB",Hospitality
https://www.linkedin.com/company/669224,https://www.linkedin.com/company/am-labels-ltd,https://amlabels.co.uk/,AM Labels Ltd,,11- 50 employees,23 on LinkedIn,"Epson ColorWorks Partner of the Year Award 2021 ğŸ†ğŸ†ğŸ‰

AM Labels Limited are a UK Label Manufacturer and Colour Label Printer Specialist, based in Kettering. AML was founded by Managing Director, Tony Mariani in 1996. The Company started printing custom labels and soon expanded into providing label printers, blank labels, installation and support so customers could take control of their onsite label printing needs.
Our capabilities stretch to being able to manufacture blank, pre-printed and printed labels. We are also a leading expert in label printers including thermal desktop, industrial printers and colour label printers, and stock from a range of manufacturers including Epson, Zebra, Afinia, OKI, Intermec and Cab.

AM Labels offer barcode solutions for every type of business. They stock a wide range of barcode scanners, including 2D scanners, rugged scanners, wireless scanners & barcode verifiers.

Not to mention, we develop our own printing and software solutions, examples of this include our Standalone Printing Solution and Select-a-Label Touch Screen Printing Solution.
","Unit G, Northfield Point",Cunliffe Drive,Kettering,,NN16 9QJ,GB,"Kettering, None",1996,"barcode label printers, self adhesive labels, thermal transfer ribbons, printed labels, label design software, onsite maintenance, installation and support, pharmaceutical labels, barcode scanners, field sales software, stock control software, colour label printers, inkjet labels",Privately Held,"Unit G, Northfield Point, Cunliffe Drive, Kettering, NN16 9QJ, GB",Information Technology & Services
https://www.linkedin.com/company/18711567,https://www.linkedin.com/company/amazing-people-schools,http://www.amazingpeopleschools.com,Amazing People Schools,+61 405829199,11- 50 employees,8 on LinkedIn,"Invite Albert Einstein, Marie Curie, Harriet Tubman, Michelangelo and others, into the classroom. Inspire pupils with their stories. Support and develop Character Strengths!

Character Education Through The Power Of Storytelling!

We put amazing stories into the hands of students. Amazing People like Marie Curie, Abraham Lincoln, Harriet Tubman and Mahatma Gandhi, demonstrated integrity, passion, courage, tenacity and vision. These are just some of the characteristics that inspire students to achieve amazing things.

Our interactive story world and resources have been developed to support cross-curricular learning, character education and inspire the amazing people of tomorrow.  Within our new Amazing People Schools site, you will find both Teacher and Student Zones, packed with engaging and unique resources! 

""The purpose of character education is for teachers to assist students to think proactively, so they use their time effectively, and act with sound judgement""â€‹. Dr Charles J Margerison.
","10 Grange Road, West Kirby",,Wirral,Merseyside,CH48 4HA,GB,"Wirral, Merseyside",2015,"Education, Wellbeing, Character Education, Inspiration",Educational Institution,"10 Grange Road, West Kirby, Wirral, Merseyside, CH48 4HA, GB",Primary/Secondary Education
https://www.linkedin.com/company/1586,https://www.linkedin.com/company/amazon,https://www.aboutamazon.com/,Amazon,,"10,000+ employees",995336 on LinkedIn,"Amazon is guided by four principles: customer obsession rather than competitor focus, passion for invention, commitment to operational excellence, and long-term thinking. We are driven by the excitement of building technologies, inventing products, and providing services that change lives. We embrace new ways of doing things, make decisions quickly, and are not afraid to fail. We have the scope and capabilities of a large company, and the spirit and heart of a small one.

Together, Amazonians research and develop new technologies from Amazon Web Services to Alexa on behalf of our customers: shoppers, sellers, content creators, and developers around the world.

Our mission is to be Earth's most customer-centric company. Our actions, goals, projects, programs, and inventions begin and end with the customer top of mind.

You'll also hear us say that at Amazon, it's always ""Day 1.""â€‹ What do we mean? That our approach remains the same as it was on Amazon's very first day - to make smart, fast decisions, stay nimble, invent, and focus on delighting our customers.",2127 7th Ave.,,Seattle,WA,98109,US,"Seattle, WA",,"e-Commerce, Retail, Operations, Internet",Public Company,"2127 7th Ave., Seattle, WA, 98109, US",Internet
https://www.linkedin.com/company/83111/about,https://www.linkedin.com/company/kantar,http://www.kantar.com,Kantar,,"10,000+ employees",35087 on LinkedIn,"Kantar is the worldâ€™s leading data, insights and consulting company. We help clients understand people and inspire growth.

We have a complete, unique and rounded understanding of people around the world: how they think, feel and act, globally and locally in over 90 markets.

We donâ€™t just help clients understand whatâ€™s happened, we tell them why and how they can shape the future.",6 More London Place,,London,,,GB,"London, None",,"market research, consulting, insights, analytics, health research, polling, surveys, brand tracking, media effectiveness, audience measurement, brand strategy, customer experience, innovation",Privately Held,"6 More London Place, London, GB",Market Research
https://www.linkedin.com/company/2522692/about,https://www.linkedin.com/company/decision-resources-group,http://decisionresourcesgroup.com/,Decision Resources Group,,1001- 5000 employees,475 on LinkedIn,"DRG is uniquely positioned to help healthcare businesses improve the lives of patients around the world by creating patient-centric commercialization strategies that drive better outcomes and better access. DRG helps clients propel commercial success with evidence-based business decisions by delivering expert consultation, data, and analysis enhanced by machine learning artificial intelligence (AI). 

With collaborative experts spanning healthcare markets, disease areas, and data science disciplines, DRG clients have unprecedented access to the expertise, data, and AI-technology solutions they require to anticipate customer needs and generate new solutions to healthcare challenges. DRG's market access solutions give life sciences the most comprehensive view of patient access and payer and health system dynamics at local levels for the global healthcare ecosystem. 

For more information visit: http://decisionresourcesgroup.com/",100 District Ave,,Burlington,Massachusetts,01803,US,"Burlington, Massachusetts",,,Privately Held,"100 District Ave, Burlington, Massachusetts, 01803, US",Hospital & Health Care
https://www.linkedin.com/company/815441/about,https://www.linkedin.com/company/researchcraft,http://www.researchcraft.com,Researchcraft Limited,01926 424 518,2- 10 employees,6 on LinkedIn,"During our 25 years we have developed a reputation for creatively combining the proven and the new to give our clients insightful, actionable, value for money research whatever their business objectives. 

Strategy development, segmentation, product development or testing, brand tracking, marketing effectiveness and customer experience/ relationships are our main specialisms.",Regent House,50 Holly Walk,Leamington Spa,Warwickshire,CV32 4HY,GB,"Leamington Spa, Warwickshire",1995,"Market Research, Ad Tracking, Brand Tracking, U&A's, Product Testing, Concept Testing, Segmentation, Shopper Studies, Customer Experience, NPD, Consumer Needs, Customer Satisfaction, Branding/ Positioning, Pricing, Packaging, Retail, Healthcare, Financial Services, International, Brand strategy",Privately Held,"Regent House, 50 Holly Walk, Leamington Spa, Warwickshire, CV32 4HY, GB",Market Research
https://www.linkedin.com/company/4857153,https://www.linkedin.com/company/by433,http://www.by433.com,433,,11- 50 employees,119 on LinkedIn,"433 is the largest social sports community in the world. Bringing you the latest news fast. The funniest clips and the most remarkable background stories are also brought to you by 433. 433 is not your average sports platform. A high dose of humor and tongue-in-cheek style, that is 433.

After the establishment in 2013, 433 started to grow exponentially. Today we have 55 million followers in total. The constant flow of new and classic content makes 433 one of the fastest growing sports communities in the world. 

âš½  433 is the #1 global online football community > 50 million followers in total (> 32.6 million on main Instagram account @433), > 5 billion impressions a month, > 1 billion views a month

âš½  #1 Instagram sports account globally measured by #views and #reactions

âš½  #1 in highest engagement per video: globally! Bigger than NBA, Bleacher Report or ESPN.

âš½  Followed by 20,000 professional footballers, athletes & DJ's, like Cristiano Ronaldo, Marcelo, Pogba and Dybala, Usain Bolt, Djokovic, Thiem and TiÃ«sto.

âš½  Currently working on creative branded content campaigns with over 25 global A-brands and clubs such as Barcelona, Real Madrid, PSG, Man City, Bayern MÃ¼nchen, etc.

âš½  Strong access to key 15-34 year old loyal follower base has attracted large number of global A-brands (Nike, adidas, Puma, Audi, Red Bull, Unilever, Sony, LG, Samsung) as partners.

âš½  HQ in Amsterdam, the team consists of > 30 employees of 10 nationalities",Rigakade 20,,Amsterdam,North Holland,1013,NL,"Amsterdam, North Holland",2013,,Public Company,"Rigakade 20, Amsterdam, North Holland, 1013, NL",Internet
https://www.linkedin.com/company/28655206,https://www.linkedin.com/company/theopenmike,https://www.youtube.com/channel/UCk6ri7PUXhnc7rrBICd9fwA/about?edit_links=1&disable_polymer=true#c4-primary-header-contents,#TheOpenMike Podcast Show,,2- 10 employees,5 on LinkedIn,"#TheOpenMike
An entrepreneurs view on high growth strategies and how to bridge the gap between the 'Idea'â€‹ and successful ""implementation'â€‹

This is a weekly podcast show with audience participation and live Q&A on all aspects of business, inbound marketing, personal development and high growth business engines with executable strategies you can apply to your business today.

- Hosted by Mike Midgley who is an experienced entrepreneur and executive board professional with venture capital experience and a proven track record in high growth business strategies. 

- Throughout his career, Mike has achieved successful six and seven-figure exits plus he has raised over Â£1.6m in Venture capital and franchised his businesses over 68 times. 

- Mike is a Public Speaker, Angel Investor, Executive Coach and Non-Executive Director working with a select few of motivated next level entrepreneurs.

- Mike still plays an active role as the high growth strategist within The SuccessHub's HubSpot Inbound Agency.

Subscribe to the channel for regular updates https://www.youtube.com/channel/UCk6ri7PUXhnc7rrBICd9fwA/about?edit_links=1&disable_polymer=true#c4-primary-header-contents",2 Princes Square,Bradford Road,Leeds,West Yorkshire,LS14HY,GB,"Leeds, West Yorkshire",2016,,Privately Held,"2 Princes Square, Bradford Road, Leeds, West Yorkshire, LS14HY, GB",Broadcast Media
https://www.linkedin.com/company/18027982,https://www.linkedin.com/company/1-key-solution,http://1keysolution.co.uk,1 Key Solution,0116 274 2601,11- 50 employees,15 on LinkedIn,"A fascinating marketing strategy backed with a brilliant design can make a huge difference to your business. It will help you stand out in a crowded market place. 

1 Key Solution was founded in 2008 in Leicester. Our creative corporate designing team in a Leicester and Birmingham are offering the comprehensive market coverage and complete solution to value.

Our passion is to provide the state of the art services. We Empower Our Clients to Succeed.

As creative and innovative designers our greatest focus is the growth and development of our companions. 1 Key Solution assists you to grow your successful business. We believe in helping you develop maintainable performance that brings your vision to Life through world class prospective.

According to our clientâ€™s need, we have the ability to offer services to various sized businesses. 
-	Graphic Design
-	Web Development 
-	SEO
-	Printing 
-	Signage
-      Social Media Marketing",30 Coleman Road,,Leicester,,LE5 4AD,GB,"Leicester, None",2008,"Social Media Marketing, Branding, Web Development, Printing",Privately Held,"30 Coleman Road, Leicester, LE5 4AD, GB",Marketing & Advertising
https://www.linkedin.com/company/10843377,https://www.linkedin.com/company/its10xtravel,https://10xtourism.com,10x Tourism,020 3858 0058,11- 50 employees,11 on LinkedIn,"WHAT WE DO: 

Our mission is to help people sustainably enjoy life-changing travel experiences. That's why we work with ambitious tour operators, DMCs and travel agents who want to get more bookings online. 

We do that with our unique 'Get More Bookings'â€‹ sales funnel that attracts, educates and converts your ideal clients.

HOW WE HELP YOU: 

We help you break the 7 and 8-figure sales barrier and stand out from your competitors with a tried and trusted digital marketing strategy. 

WHO WE WORK WITH: 

Tour operators, DMCs, national and local tourism organisations from around the world, incl.:

ğŸ’¡ Ski & Chalet Operators
ğŸ’¡ Bicycle Tours
ğŸ’¡ Golf Tours
ğŸ’¡ Ecotourism Operators
ğŸ’¡ Mountain Climbing 
ğŸ’¡ Fishing Expeditions
ğŸ’¡ Safari Tours
ğŸ’¡ Hiking Tours
ğŸ’¡ National Tourism Boards
ğŸ’¡ Regional Tourism Boards

WHO WE ARE:

The team at 10x Tourism truly live and breathe the travel industry. With headquarters in the UK, we promote a location independent lifestyle that brings about a dynamic perspective and global insight.

WHAT OTHERS SAY: 

ğŸ‘ â€œIâ€™m delighted with our marketing strategy. With 10x Tourism weâ€™ve increased sales by 38% in six months!â€ - Guy Whitehead, The Leap

ğŸ‘ â€œYou guys are worth every penny. I feel like we have someone that â€˜gets itâ€™ finally with regard to our business.â€ - Sam Thomas, More Mountain

ğŸ‘ â€œI really appreciate your ability to create our personal â€˜voiceâ€™ in the email series you put together. Fantastic!â€ - Julie Robinson, Bicycle Adventures

ğŸ‘ â€œThe best online marketing strategy weâ€™ve doneâ€ - Clara CallÃ­s, Barcelona Guide Bureau

ğŸ‘ â€œKnowing 10x Tourism had expertise not only in the travel industry but also in the ski industry was a big incentive for us.â€ - Ben Badger, Momentum Ski

ğŸ‘ â€œ(10x Tourism) have very good ideas â€“ innovative and new. They are a team thatâ€™s young, energetic and full of ideas, and they deliver their products on time""â€‹ - Monica Fachin, Avventure Bellissime

Get in touch to see how we can help you grow your business.",35 Little Russell Street,1st Floor,London,London,WC1A 2HH,GB,"London, London",2012,"Content Marketing, Digital Marketing, Lead Generation, Digital Strategy, Conversion Optimisation, Travel Industry, Travel Marketing, Sales Automation, Targeted Advertising, Customer Relationship Management",Privately Held,"35 Little Russell Street, 1st Floor, London, London, WC1A 2HH, GB",Marketing & Advertising
https://www.linkedin.com/company/2765722,https://www.linkedin.com/company/123-reg-co-uk,http://www.123-reg.co.uk/,123 Reg,,51- 200 employees,34 on LinkedIn,"123 Reg was launched in 2000, and in the intervening years, has grown into the UK's largest domain registrar, having registered over 3 million domain names. Our philosophy is simple: the internet is for the many, not the few, which is why every single product is designed for the small business owner looking for an easy, hassle-free way of getting online. We have drawn together a range of easy to use tools and services to help our customers to get online, create their first website, and make a success of their business online. Whether you're tech savvy or a complete novice, we have the tools and platforms to help you build your dream site.

We have over 800,000 customers and they have nearly 800,000 active websites. These websites are either hosted by 123 Reg in our state-of-the-art UK based data centres or by our customers directly. We are part of the largest, privately owned hosting company in Europe. We are proud of all we have achieved over the years having won awards such as the 'Best Domain Registration'â€‹ award from Start Your Business magazine in 2014 and 2015, and were named Best Web Host 2015 by TechRadar Pro.

In April 2017, 123 Reg was acquired by GoDaddy, the worldâ€™s largest technology provider dedicated to small businesses.

Our passion is to get businesses just like yours online, and to help you succeed. ","5th Floor, The Shipping Building, The Old Vinyl Factory",252 - 254 Blyth Road,Hayes,Middlesex,UB3 1HA,GB,"Hayes, Middlesex",2000,"Small Business Online Services, Personal and Business Email Solutions, Small Business Marketing Solutions, Web-based Tool for Website Creation, Domain Name Registration, Website and Online Security Options, Website Hosting, Server Hosting Solutions",Privately Held,"5th Floor, The Shipping Building, The Old Vinyl Factory, 252 - 254 Blyth Road, Hayes, Middlesex, UB3 1HA, GB",Internet
https://www.linkedin.com/company/71977922,https://www.linkedin.com/company/13chats,https://13chats.com,13Chats,+1 201 254 7704,11- 50 employees,10 on LinkedIn,"All-in-one online service for marketers, salespeople, and support teams. ",4 Old Wood Rd,,Edgewater,ĞÑŒÑ-Ğ”Ğ¶ĞµÑ€ÑĞ¸,07020,US,"Edgewater, ĞÑŒÑ-Ğ”Ğ¶ĞµÑ€ÑĞ¸",2019,,Public Company,"4 Old Wood Rd, Edgewater, ĞÑŒÑ-Ğ”Ğ¶ĞµÑ€ÑĞ¸, 07020, US",Computer Software
https://www.linkedin.com/company/101340,https://www.linkedin.com/company/1hqbrandagency,http://www.1hqglobal.com,1HQ Brand Agency,,51- 200 employees,82 on LinkedIn,"We are a brand agency of strategic and creative thinkers, specialising in making our clients'â€‹ brands more productive by continually influencing consumer and shopper behaviour with big ideas, persuasively expressed.

At their most productive, brands are active agents of change â€“ shaping and influencing our thoughts, feelings and behaviour. To effect this change, brands must clearly define and communicate what it is they do for usâ€¦ and do for us better than their competitors.

To make your brands more productive, so that when they meet the competitive reality of the market place, their potential to influence, engage and connect with your consumer is maximised.",The Old Brewery,22 Russell St,Windsor,Berkshire,SL4 1HQ,GB,"Windsor, Berkshire",1993,"Strategy, Retail, Packaging, Brand Design, Digital, Consumer Insight, Semiotics, Innovation, Design, FMCG",Privately Held,"The Old Brewery, 22 Russell St, Windsor, Berkshire, SL4 1HQ, GB",Design
https://www.linkedin.com/company/2448267,https://www.linkedin.com/company/2yolk-branding-&-design,http://www.2yolk-branding.com,2yolk,,11- 50 employees,13 on LinkedIn,"2yolk is an award-winning brand consulting and design agency based in Athens, Greece. Since our founding in 2003, we have strived to create brands that are visionary, innovative, meaningful and inspiring. Working alongside both new and well-established brands, we help our clients to better understand who they are, who they want to become, and how to communicate in order to strengthen their brand equity.  

It is our belief that brands should be build from the inside out and that great design and result-oriented strategy can, and should be combined. The result of this belief is brands that are distinctive, engaging and successful.

We are a close-knit community of designers, brand strategists, marketers, copywriters and consumer psychologists, fully invested in our work, passionate and committed on delivering brand stories that are skillfully and effectively told. 

Whether we are partnering with a single-product food startup, a cultural institution or a multinational enterprise, we put our clients first and we always speak our minds. We have worked in 3 continents, successfully collaborated with more than 100 brands and won 28 international and national design awards. 

2yolk provides a complete 360o array of services, ranging from strategic design to final production. 
In particular:
ğŸ”¸Brand strategy and positioning
ğŸ”¸Visual identity and design
ğŸ”¸Naming and verbal identity
ğŸ”¸Environmental branding
ğŸ”¸Web Design & Social Media

2yolk is a member of the Hellenic Association of Advertising-Communication Agencies (edee.gr) at the sector of Branding & Design. Amongst our inspiring clients, we count Unilever, Upfield, Mondelez International, Coca-Cola HBC, AB Vassilopoulos, Loulis Mills, Chios Gardens, Vechro, Hatziyiannakis DragÃ©es.",55 Attikis Str.,,Vrilissia,Athens,15235,GR,"Vrilissia, Athens",2003,"Brand Strategy, Design Strategy, Brand Valuation, Visual Systems, Positioning, Naming, Brand Architecture, Verbal Identity, Packaging Design, Corporate Identity, Retail Identity",Privately Held,"55 Attikis Str., Vrilissia, Athens, 15235, GR",Design
https://www.linkedin.com/company/2280228,https://www.linkedin.com/company/3-sided-cube,https://3sidedcube.com,3 SIDED CUBE,01202611612,51- 200 employees,51 on LinkedIn,"3 Sided Cube is an agency of creatives and technologists who collaborate with extraordinary startups, organisations and enterprise solutions to create life-saving and life-changing digital solutions.

Our passion for building tech for good has aided global brands such as American Red Cross, Boots, RNLI, LUSH, RSPB, Lloyds Banking Group and Nordstrom to solve problems that have championed the genius over the generic. 

This focus on creating apps, websites and products with the ability to change lives has resulted in 3 Sided Cube winning acclaimed awards such as The Digital Communications Award for Best Mobile App, a Webby Award for Best Health App, plus several awards for best charity app. 

On top of this, our innovative approach to problem-solving earned us a place on the Top 50 Creative Agencies published by Creative England in association with The Telegraph.

Cubeâ€™s proven process of working closely with our clients to deliver technology solutions has helped to create international disaster preparedness apps, placed first aid and emergency care in the hands of people who need it the most and raised millions of dollars for charities; saving lives every day. 

Our Accolades

Winner of the ""Charity & Not for Profit""â€‹ award at the Digitals - Econsultancy & New Media Age

Winner of the ""Not-for-Profit Website or Campaign""â€‹ award at the Dadi Awards - The Drum

Winner of the ""Best use of Technology""â€‹ Award by Umbraco CMS.

Winner of the ""Best Mobile App""â€‹ at the European Digital Communication Awards.

Winner of the ""Best use of digital""â€‹ beating the likes of Sainsbury's, Unilever & McDonalds.

Winner of the â€œBest Health Appâ€ award - Webby Awards.

Get in touch: holla@3sidedcube.com",Telephone House,18 Christchurch road,Bournemouth,Dorset,BH1 3NE,GB,"Bournemouth, Dorset",2009,"Mobile Applications, Web Applications, Digital Strategy, Websites, Rapid Prototyping, Mobile Development, Web Development, iOS, Android, WordPress, Apps",Privately Held,"Telephone House, 18 Christchurch road, Bournemouth, Dorset, BH1 3NE, GB",Information Technology & Services
https://www.linkedin.com/company/18974414,https://www.linkedin.com/company/303london,https://303.london/,303 London,020 3137 1670,11- 50 employees,22 on LinkedIn,303 is a creative digital marketing agency that helps direct to consumer businesses create and amplify their brand ğŸ’¡,"Coda Studios, Munster Road, Fulham",24.1,London,,SW6 6AW,GB,"London, None",2016,"social media, content creation ",Privately Held,"Coda Studios, Munster Road, Fulham, 24.1, London, SW6 6AW, GB",Marketing & Advertising
https://www.linkedin.com/company/11201305,https://www.linkedin.com/company/3pb-barristers,http://www.3pb.co.uk,3PB Barristers,,51- 200 employees,142 on LinkedIn,"3PB is an established Barristers'â€‹ Chambers with offices in London, Birmingham, Bournemouth, Bristol, Oxford, and Winchester.",3 Paper Buildings,Temple,London,,EC4Y 7EU,GB,"London, None",1892,"Clinical Negligence, Construction & Engineering, Crime, Education, Employment & Discrimination, Family, Mediation, Commercial, Personal Injury, Public & Regulatory, Sports, Property & Estates",Privately Held,"3 Paper Buildings, Temple, London, EC4Y 7EU, GB",Law Practice
